,site_id,counts,Unnamed: 0,FID,name,lon,lat,ONIMI,OKOOD,MNIMI,MKOOD,lau2,lon_cntr,lat_cntr
0,230,2282,602,601,KINGA,24.74440556,59.43759444,Tallinna linn,784,Harju maakond,37,784,24.7436642049,59.424938231
1,743,2044,759,758,VASAD,24.77026944,59.44360556,Tallinna linn,784,Harju maakond,37,784,24.7436642049,59.424938231
2,186,1387,610,609,KARJA,24.7465,59.43668889,Tallinna linn,784,Harju maakond,37,784,24.7436642049,59.424938231
3,318,1172,860,859,LENNU,24.80277778,59.41749444,Tallinna linn,784,Harju maakond,37,784,24.7436642049,59.424938231
4,13,1097,855,854,AIRPO,24.79862222,59.41610833,Tallinna linn,784,Harju maakond,37,784,24.7436642049,59.424938231
5,31,1050,667,666,ARIKE,24.74361389,59.43444167,Tallinna linn,784,Harju maakond,37,784,24.7436642049,59.424938231
6,124,906,717,716,HRX,24.741225,59.44863056,Tallinna linn,784,Harju maakond,37,784,24.7436642049,59.424938231
7,122,886,618,617,HOTAL,24.73194722,59.43533056,Tallinna linn,784,Harju maakond,37,784,24.7436642049,59.424938231
8,579,883,758,757,SADAM,24.75953056,59.44340556,Tallinna linn,784,Harju maakond,37,784,24.7436642049,59.424938231
9,502,825,736,735,POSTI,24.75610833,59.43776944,Tallinna linn,784,Harju maakond,37,784,24.7436642049,59.424938231
10,794,788,743,742,WWPAS,24.75058056,59.43719167,Tallinna linn,784,Harju maakond,37,784,24.7436642049,59.424938231
11,831,725,655,654,KAKSI,24.76083056,59.43305556,Tallinna linn,784,Harju maakond,37,784,24.7436642049,59.424938231
12,773,719,613,612,VIRU,24.74839167,59.4369,Tallinna linn,784,Harju maakond,37,784,24.7436642049,59.424938231
13,516,608,629,628,PUSPA,24.8237,59.46486389,Tallinna linn,784,Harju maakond,37,784,24.7436642049,59.424938231
14,81,540,818,817,EPOST,24.79314167,59.43023889,Tallinna linn,784,Harju maakond,37,784,24.7436642049,59.424938231
15,287,480,900,899,KURTF,22.48588611,58.25466389,Kuressaare linn,349,Saare maakond,74,349,22.4901813122,58.2484865923
16,958,459,746,745,MPLAZ,24.75388889,59.4375,Tallinna linn,784,Harju maakond,37,784,24.7436642049,59.424938231
17,632,451,677,676,SYSTA,24.66439444,59.45763889,Tallinna linn,784,Harju maakond,37,784,24.7436642049,59.424938231
18,617,430,738,737,SOPRU,24.68560833,59.39880556,Tallinna linn,784,Harju maakond,37,784,24.7436642049,59.424938231
19,270,425,834,833,KPLAZ,24.74610556,59.43233333,Tallinna linn,784,Harju maakond,37,784,24.7436642049,59.424938231
20,430,414,785,784,OLYMP,24.75776944,59.42999444,Tallinna linn,784,Harju maakond,37,784,24.7436642049,59.424938231
21,910,406,919,918,SOOLA,26.73054722,58.37805556,Tartu linn,795,Tartu maakond,78,795,26.728427209,58.3701665188
22,562,405,342,341,ROHUN,24.81084444,59.55999722,Viimsi vald,890,Harju maakond,37,890,24.7892923114,59.5411908659
23,95,403,917,916,FORTU,26.73054722,58.38027222,Tartu linn,795,Tartu maakond,78,795,26.728427209,58.3701665188
24,709,382,740,739,UJULA,24.75111389,59.43971944,Tallinna linn,784,Harju maakond,37,784,24.7436642049,59.424938231
25,862,371,835,834,HKOHT,24.74805556,59.43444167,Tallinna linn,784,Harju maakond,37,784,24.7436642049,59.424938231
26,304,369,630,629,LAITN,24.74610556,59.43888889,Tallinna linn,784,Harju maakond,37,784,24.7436642049,59.424938231
27,495,366,912,911,POLAR,26.725,58.37776667,Tartu linn,795,Tartu maakond,78,795,26.728427209,58.3701665188
28,623,356,787,786,STOCK,24.762075,59.43258611,Tallinna linn,784,Harju maakond,37,784,24.7436642049,59.424938231
29,445,346,639,638,PAGAR,24.74805278,59.44082222,Tallinna linn,784,Harju maakond,37,784,24.7436642049,59.424938231
30,489,339,649,648,PIRTV,24.88741667,59.47125556,Tallinna linn,784,Harju maakond,37,784,24.7436642049,59.424938231
31,377,326,734,733,METRO,24.75513056,59.43971667,Tallinna linn,784,Harju maakond,37,784,24.7436642049,59.424938231
32,716,322,644,643,UUSTN,24.74834167,59.43944167,Tallinna linn,784,Harju maakond,37,784,24.7436642049,59.424938231
33,423,311,620,619,NUNNE,24.74083056,59.43943889,Tallinna linn,784,Harju maakond,37,784,24.7436642049,59.424938231
34,409,311,793,792,MYYRI,24.7481,59.43562778,Tallinna linn,784,Harju maakond,37,784,24.7436642049,59.424938231
35,414,301,885,884,NARVA,28.19166667,59.38083611,Narva linn,511,Ida-Viru maakond,44,511,28.1088919858,59.3541913804
36,199,288,662,661,KAUGE,24.71388333,59.43444167,Tallinna linn,784,Harju maakond,37,784,24.7436642049,59.424938231
37,393,284,102,101,MPIIR,24.46194167,59.46721944,Harku vald,198,Harju maakond,37,198,24.4423527201,59.4035370046
38,761,281,742,741,VIKES,24.75586389,59.43608333,Tallinna linn,784,Harju maakond,37,784,24.7436642049,59.424938231
39,164,268,711,710,KADRI,24.78375556,59.43738333,Tallinna linn,784,Harju maakond,37,784,24.7436642049,59.424938231
40,76,263,750,749,ENDLA,24.73126667,59.42897222,Tallinna linn,784,Harju maakond,37,784,24.7436642049,59.424938231
41,343,263,732,731,LUHA,24.73860833,59.42554444,Tallinna linn,784,Harju maakond,37,784,24.7436642049,59.424938231
42,949,262,723,722,JAHUT,24.74416667,59.44527778,Tallinna linn,784,Harju maakond,37,784,24.7436642049,59.424938231
43,197,259,611,610,KAUBA,24.75711944,59.434725,Tallinna linn,784,Harju maakond,37,784,24.7436642049,59.424938231
44,335,256,821,820,LLAVA,24.80689167,59.44406667,Tallinna linn,784,Harju maakond,37,784,24.7436642049,59.424938231
45,83,253,751,750,ESKAB,24.76538056,59.43785278,Tallinna linn,784,Harju maakond,37,784,24.7436642049,59.424938231
46,792,248,247,246,VOSU,25.98138333,59.57944167,Vihula vald,887,Lääne-Viru maakond,59,887,26.0851333592,59.5393460708
47,337,247,110,109,LOHUS,24.23526667,59.3825,Keila vald,295,Harju maakond,37,295,24.291986319,59.3161718668
48,765,246,537,536,VILMA,25.58258889,58.34955556,Viljandi linn,897,Viljandi maakond,84,897,25.59128476,58.3599325495
49,611,243,621,620,SNELL,24.73693889,59.43944167,Tallinna linn,784,Harju maakond,37,784,24.7436642049,59.424938231
50,418,242,525,524,NJOES,28.03694167,59.46249444,Narva-Jõesuu linn,513,Ida-Viru maakond,44,513,28.0253964715,59.4423066492
51,242,232,719,718,KODE,24.74869444,59.44208056,Tallinna linn,784,Harju maakond,37,784,24.7436642049,59.424938231
52,470,231,577,576,PARTF,24.49554722,58.38416944,Pärnu linn,625,Pärnu maakond,67,625,24.5259275582,58.3838964769
53,463,229,575,574,PARHO,24.50610833,58.385,Pärnu linn,625,Pärnu maakond,67,625,24.5259275582,58.3838964769
54,767,224,538,537,VILTU,25.59832222,58.36389167,Viljandi linn,897,Viljandi maakond,84,897,25.59128476,58.3599325495
55,415,222,145,144,NASVA,22.37276944,58.22360833,Kaarma vald,270,Saare maakond,74,270,22.4795597872,58.3319825545
56,532,214,589,588,RAKMA,26.34390278,59.35083056,Rakvere linn,663,Lääne-Viru maakond,59,663,26.3628740797,59.3453399665
57,509,209,631,630,PUHAV,24.74723056,59.43871944,Tallinna linn,784,Harju maakond,37,784,24.7436642049,59.424938231
58,486,209,627,626,PIRRA,24.83110833,59.47221944,Tallinna linn,784,Harju maakond,37,784,24.7436642049,59.424938231
59,12,204,748,747,AHTRI,24.75832222,59.43982222,Tallinna linn,784,Harju maakond,37,784,24.7436642049,59.424938231
60,561,203,341,340,ROHTE,24.79639444,59.52833333,Viimsi vald,890,Harju maakond,37,890,24.7892923114,59.5411908659
61,523,201,650,649,RADIS,24.75777778,59.43341667,Tallinna linn,784,Harju maakond,37,784,24.7436642049,59.424938231
62,622,198,863,862,SSOJA,24.80216667,59.42077222,Tallinna linn,784,Harju maakond,37,784,24.7436642049,59.424938231
63,796,191,654,653,YHISP,24.76139167,59.43444444,Tallinna linn,784,Harju maakond,37,784,24.7436642049,59.424938231
64,103,191,533,532,HAAPS,23.54193889,58.94166667,Haapsalu linn,183,Lääne maakond,57,183,23.5396481618,58.9340921176
65,1008,189,839,838,SOLAR,24.75194444,59.43361111,Tallinna linn,784,Harju maakond,37,784,24.7436642049,59.424938231
66,471,187,569,568,PASTR,24.52106667,58.37330278,Pärnu linn,625,Pärnu maakond,67,625,24.5259275582,58.3838964769
67,474,185,757,756,PEDAK,24.76975278,59.43851667,Tallinna linn,784,Harju maakond,37,784,24.7436642049,59.424938231
68,38,184,615,614,ASTAN,24.63846667,59.40452778,Tallinna linn,784,Harju maakond,37,784,24.7436642049,59.424938231
69,1,183,41,40,AABLA,25.52110556,59.58555556,Kuusalu vald,353,Harju maakond,37,353,25.6482832547,59.459399625
70,520,180,340,339,PYYNS,24.80527222,59.54277778,Viimsi vald,890,Harju maakond,37,890,24.7892923114,59.5411908659
71,789,180,586,585,VORKE,26.99833056,57.84666667,Võru linn,919,Võru maakond,86,919,27.0046819256,57.8384484973
72,469,179,576,575,PARSA,24.50221667,58.37694167,Pärnu linn,625,Pärnu maakond,67,625,24.5259275582,58.3838964769
73,262,174,219,218,KOPU,22.19805556,58.91860833,Kõrgessaare vald,392,Hiiu maakond,39,392,22.4813018675,58.9479318366
74,151,170,648,647,JUHKE,24.76704722,59.42878056,Tallinna linn,784,Harju maakond,37,784,24.7436642049,59.424938231
75,350,167,687,686,LVORM,24.86972778,59.45416389,Tallinna linn,784,Harju maakond,37,784,24.7436642049,59.424938231
76,631,164,721,720,SUVA,24.74026944,59.44278056,Tallinna linn,784,Harju maakond,37,784,24.7436642049,59.424938231
77,464,164,40,39,PARIS,25.69971389,59.64416667,Kuusalu vald,353,Harju maakond,37,353,25.6482832547,59.459399625
78,328,162,783,782,LIIVA,24.76110556,59.43027222,Tallinna linn,784,Harju maakond,37,784,24.7436642049,59.424938231
79,183,156,692,691,KARI,24.69068333,59.44611389,Tallinna linn,784,Harju maakond,37,784,24.7436642049,59.424938231
80,655,155,932,931,TARMA,26.70165556,58.36221667,Tartu linn,795,Tartu maakond,78,795,26.728427209,58.3701665188
81,675,155,55,54,TOILA,27.52943889,59.41472222,Toila vald,802,Ida-Viru maakond,44,802,27.5895753196,59.3648185396
82,332,154,791,790,LIVIK,24.77832778,59.42666389,Tallinna linn,784,Harju maakond,37,784,24.7436642049,59.424938231
83,661,153,908,907,TARYL,26.72055556,58.38138889,Tartu linn,795,Tartu maakond,78,795,26.728427209,58.3701665188
84,473,151,705,704,PAVIL,24.80805556,59.44999444,Tallinna linn,784,Harju maakond,37,784,24.7436642049,59.424938231
85,80,151,937,936,EPAY,26.69500556,58.38750278,Tartu linn,795,Tartu maakond,78,795,26.728427209,58.3701665188
86,681,149,622,621,TOOMP,24.74021667,59.43713333,Tallinna linn,784,Harju maakond,37,784,24.7436642049,59.424938231
87,65,149,248,247,EISMA,26.28555556,59.55888889,Vihula vald,887,Lääne-Viru maakond,59,887,26.0851333592,59.5393460708
88,556,146,779,778,RMARE,24.65198333,59.42636389,Tallinna linn,784,Harju maakond,37,784,24.7436642049,59.424938231
89,785,146,680,679,VOLTA,24.72028056,59.45028056,Tallinna linn,784,Harju maakond,37,784,24.7436642049,59.424938231
90,341,145,619,618,LOSSI,24.73728333,59.43581389,Tallinna linn,784,Harju maakond,37,784,24.7436642049,59.424938231
91,169,143,671,670,KAKUM,24.59024167,59.44810556,Tallinna linn,784,Harju maakond,37,784,24.7436642049,59.424938231
92,220,139,395,394,KIHMA,22.06194722,58.35694167,Kihelkonna vald,301,Saare maakond,74,301,22.0472503968,58.4029649023
93,413,138,890,889,NARTA,28.17026389,59.38111389,Narva linn,511,Ida-Viru maakond,44,511,28.1088919858,59.3541913804
94,311,137,344,343,LEEVI,27.23499444,57.94888889,Veriora vald,879,Põlva maakond,65,879,27.299557483,57.9726892462
95,651,135,255,254,TAPA,25.98776667,59.25971944,Tapa vald,790,Lääne-Viru maakond,59,790,25.8669577976,59.2416944868
96,754,135,250,249,VIHUQ,26.12945556,59.54683056,Vihula vald,887,Lääne-Viru maakond,59,887,26.0851333592,59.5393460708
97,687,135,206,205,TORVA,25.93639444,57.99249167,Helme vald,203,Valga maakond,82,203,25.8072478261,57.9848197155
98,467,132,564,563,PARMA,24.57750556,58.37693889,Pärnu linn,625,Pärnu maakond,67,625,24.5259275582,58.3838964769
99,84,132,660,659,ESTEL,24.72831667,59.43943889,Tallinna linn,784,Harju maakond,37,784,24.7436642049,59.424938231
100,698,129,244,243,TUKSI,23.53166667,59.16833056,Noarootsi vald,520,Lääne maakond,57,520,23.5817434761,59.0971187124
101,49,126,798,797,BLRT,24.66111667,59.46305556,Tallinna linn,784,Harju maakond,37,784,24.7436642049,59.424938231
102,395,125,390,389,MUHU,23.23612778,58.59916667,Muhu vald,478,Saare maakond,74,478,23.2478417057,58.6005172996
103,111,124,532,531,HAREH,23.53250556,58.95194444,Haapsalu linn,183,Lääne maakond,57,183,23.5396481618,58.9340921176
104,286,122,902,901,KURSA,22.47249444,58.2475,Kuressaare linn,349,Saare maakond,74,349,22.4901813122,58.2484865923
105,759,121,141,140,VIITN,25.99110833,59.45916944,Kadrina vald,272,Lääne-Viru maakond,59,272,26.0480668662,59.3711160051
106,136,121,875,874,IRU,24.94581944,59.45583056,Maardu linn,446,Harju maakond,37,446,24.9736738173,59.4652601869
107,760,121,741,740,VIKER,24.84556389,59.43888889,Tallinna linn,784,Harju maakond,37,784,24.7436642049,59.424938231
108,861,120,682,681,HEINA,24.71806389,59.44194444,Tallinna linn,784,Harju maakond,37,784,24.7436642049,59.424938231
109,173,119,299,298,KALLA,27.15909167,58.64866944,Alatskivi vald,126,Tartu maakond,78,126,27.1125279825,58.6054711115
110,139,119,647,646,JAKOB,24.76833611,59.43193889,Tallinna linn,784,Harju maakond,37,784,24.7436642049,59.424938231
111,673,117,715,714,TMAJA,24.75913056,59.4365,Tallinna linn,784,Harju maakond,37,784,24.7436642049,59.424938231
112,208,117,49,48,KEIBU,23.77304444,59.25833056,Padise vald,562,Harju maakond,37,562,23.9818282041,59.2195253675
113,775,116,104,103,VJOES,24.37249167,59.43333056,Harku vald,198,Harju maakond,37,198,24.4423527201,59.4035370046
114,626,115,581,580,SUNSE,24.49833056,58.37416667,Pärnu linn,625,Pärnu maakond,67,625,24.5259275582,58.3838964769
115,338,115,36,35,LOKSA,25.73473056,59.585,Kuusalu vald,353,Harju maakond,37,353,25.6482832547,59.459399625
116,412,114,888,887,NARRJ,28.19583056,59.37027778,Narva linn,511,Ida-Viru maakond,44,511,28.1088919858,59.3541913804
117,824,113,339,338,MKAST,24.90055833,59.49139167,Viimsi vald,890,Harju maakond,37,890,24.7892923114,59.5411908659
118,6,111,685,684,AGRO,24.88213333,59.46288333,Tallinna linn,784,Harju maakond,37,784,24.7436642049,59.424938231
119,212,110,551,550,KEITF,24.42304444,59.30805833,Keila linn,296,Harju maakond,37,296,24.3932409089,59.3118232006
120,435,110,381,380,ORIMA,23.06695556,58.55805556,Orissaare vald,550,Saare maakond,74,550,22.9316420857,58.5620476813
121,195,109,790,789,KATUS,24.78409444,59.42855833,Tallinna linn,784,Harju maakond,37,784,24.7436642049,59.424938231
122,541,109,364,363,RAPL,24.78581667,59.00597778,Rapla vald,669,Rapla maakond,70,669,24.725644867,59.0344063535
123,568,108,659,658,ROOSI,24.74360833,59.43027778,Tallinna linn,784,Harju maakond,37,784,24.7436642049,59.424938231
124,353,108,663,662,MADAR,24.72155,59.43019167,Tallinna linn,784,Harju maakond,37,784,24.7436642049,59.424938231
125,679,108,600,599,TONIS,24.73659167,59.43242222,Tallinna linn,784,Harju maakond,37,784,24.7436642049,59.424938231
126,364,105,792,791,MARAT,24.77313889,59.43005833,Tallinna linn,784,Harju maakond,37,784,24.7436642049,59.424938231
127,724,105,879,878,VALGA,26.07748889,57.76639167,Valga linn,854,Valga maakond,82,854,26.0708032449,57.7784600776
128,191,105,718,717,KASAD,24.74888333,59.44499167,Tallinna linn,784,Harju maakond,37,784,24.7436642049,59.424938231
129,97,105,926,925,FYYSI,26.72721389,58.37276944,Tartu linn,795,Tartu maakond,78,795,26.728427209,58.3701665188
130,544,104,794,793,RAVAL,24.75393056,59.43469444,Tallinna linn,784,Harju maakond,37,784,24.7436642049,59.424938231
131,559,103,676,675,ROCCA,24.63747778,59.43155278,Tallinna linn,784,Harju maakond,37,784,24.7436642049,59.424938231
132,580,102,642,641,SADOL,24.77666667,59.43416667,Tallinna linn,784,Harju maakond,37,784,24.7436642049,59.424938231
133,702,102,434,433,TVAND,26.70486667,58.32366944,Ülenurme vald,949,Tartu maakond,78,949,26.6774712378,58.3116112752
134,266,102,22,21,KOSE,25.14804444,59.18721667,Kose vald,337,Harju maakond,37,337,25.1066440122,59.1935046924
135,93,101,752,751,FOREX,24.76262778,59.43754444,Tallinna linn,784,Harju maakond,37,784,24.7436642049,59.424938231
136,664,101,643,642,TELE,24.77118889,59.43428056,Tallinna linn,784,Harju maakond,37,784,24.7436642049,59.424938231
137,891,99,426,425,KOIKY,26.28719444,57.67743889,Taheva vald,779,Valga maakond,82,779,26.330533452,57.656192474
138,712,99,396,395,UNDVA,21.91911667,58.51396389,Kihelkonna vald,301,Saare maakond,74,301,22.0472503968,58.4029649023
139,542,98,641,640,RAUA,24.76889167,59.43555278,Tallinna linn,784,Harju maakond,37,784,24.7436642049,59.424938231
140,116,97,534,533,HFORT,23.54757222,58.92783333,Haapsalu linn,183,Lääne maakond,57,183,23.5396481618,58.9340921176
141,63,97,351,350,EIDAP,24.95033889,58.76651944,Kehtna vald,292,Rapla maakond,70,292,24.9203233499,58.8476756522
142,179,96,801,800,KARBE,24.88741667,59.44546944,Tallinna linn,784,Harju maakond,37,784,24.7436642049,59.424938231
143,833,96,226,225,HYYRU,24.55749167,59.38360833,Saue vald,727,Harju maakond,37,727,24.5322818364,59.286018621
144,662,96,368,367,TEHUM,22.24360833,58.18083889,Salme vald,721,Saare maakond,74,721,22.1918802641,58.1379342782
145,819,95,775,774,PAE,24.82093056,59.43552778,Tallinna linn,784,Harju maakond,37,784,24.7436642049,59.424938231
146,714,95,87,86,UUEM,23.59111389,58.94471944,Ridala vald,674,Lääne maakond,57,674,23.5860176956,58.8671861188
147,604,94,29,28,SILLQ,27.77313889,59.38944167,Vaivara vald,851,Ida-Viru maakond,44,851,27.8827796677,59.331780323
148,798,93,796,795,YLARI,24.79194167,59.42416667,Tallinna linn,784,Harju maakond,37,784,24.7436642049,59.424938231
149,959,93,892,891,NARAH,28.1625,59.38388889,Narva linn,511,Ida-Viru maakond,44,511,28.1088919858,59.3541913804
150,28,93,366,365,ARDU,25.37555,59.09527778,Kõue vald,363,Harju maakond,37,363,25.2962520584,59.1040183104
151,501,93,559,558,PORTA,24.50305278,58.38639167,Pärnu linn,625,Pärnu maakond,67,625,24.5259275582,58.3838964769
152,634,93,207,206,TAAGE,25.70506667,58.00733333,Helme vald,203,Valga maakond,82,203,25.8072478261,57.9848197155
153,441,91,767,766,PAASK,24.63104167,59.36184167,Tallinna linn,784,Harju maakond,37,784,24.7436642049,59.424938231
154,956,90,32,31,LAAGN,27.97611111,59.38972222,Vaivara vald,851,Ida-Viru maakond,44,851,27.8827796677,59.331780323
155,877,90,541,540,VKOST,25.62341389,58.36943056,Viljandi linn,897,Viljandi maakond,84,897,25.59128476,58.3599325495
156,367,89,846,845,MARLE,24.74470833,59.42416667,Tallinna linn,784,Harju maakond,37,784,24.7436642049,59.424938231
157,628,87,103,102,SUURU,24.37527222,59.46194444,Harku vald,198,Harju maakond,37,198,24.4423527201,59.4035370046
158,466,87,568,567,PARLI,24.52496667,58.38256389,Pärnu linn,625,Pärnu maakond,67,625,24.5259275582,58.3838964769
159,437,86,430,429,OTEPA,26.47137778,58.03916667,Otepää vald,636,Valga maakond,82,636,26.4686913469,58.0260976842
160,908,85,528,527,SILKO,27.74860556,59.40360556,Sillamäe linn,735,Ida-Viru maakond,44,735,27.7427925153,59.3992002053
161,246,85,634,633,KOHTU,24.75138333,59.42805833,Tallinna linn,784,Harju maakond,37,784,24.7436642049,59.424938231
162,204,84,872,871,KEEMI,25.01610833,59.48304167,Maardu linn,446,Harju maakond,37,446,24.9736738173,59.4652601869
163,234,84,799,798,KIVIL,24.87416667,59.44721944,Tallinna linn,784,Harju maakond,37,784,24.7436642049,59.424938231
164,51,84,749,748,CENTR,24.7613,59.43813889,Tallinna linn,784,Harju maakond,37,784,24.7436642049,59.424938231
165,488,84,628,627,PIRTF,24.83826389,59.47106389,Tallinna linn,784,Harju maakond,37,784,24.7436642049,59.424938231
166,658,84,941,940,TARTF,26.72055556,58.38361667,Tartu linn,795,Tartu maakond,78,795,26.728427209,58.3701665188
167,408,83,884,883,MUVEE,26.94416389,58.82971944,Mustvee linn,485,Jõgeva maakond,49,485,26.9365288712,58.8479989746
168,535,82,592,591,RAKVE,26.36835278,59.34551944,Rakvere linn,663,Lääne-Viru maakond,59,663,26.3628740797,59.3453399665
169,73,81,771,770,EMTO,24.80526944,59.43889167,Tallinna linn,784,Harju maakond,37,784,24.7436642049,59.424938231
170,849,81,904,903,KURGY,22.49916667,58.24833056,Kuressaare linn,349,Saare maakond,74,349,22.4901813122,58.2484865923
171,55,78,817,816,DVIGA,24.81474444,59.42225833,Tallinna linn,784,Harju maakond,37,784,24.7436642049,59.424938231
172,411,78,887,886,NARKE,28.17887778,59.37860556,Narva linn,511,Ida-Viru maakond,44,511,28.1088919858,59.3541913804
173,878,77,865,864,YLOTS,24.80138889,59.42249722,Tallinna linn,784,Harju maakond,37,784,24.7436642049,59.424938231
174,453,76,530,529,PALDI,24.06888333,59.35111389,Paldiski linn,580,Harju maakond,37,580,24.031023384,59.3462852456
175,493,75,562,561,PNIID,24.54388889,58.36694167,Pärnu linn,625,Pärnu maakond,67,625,24.5259275582,58.3838964769
176,69,74,583,582,ELVKO,26.41334167,58.21944167,Elva linn,170,Tartu maakond,78,170,26.4196134866,58.2268400021
177,582,74,18,17,SAHAL,24.94472222,59.425,Jõelähtme vald,245,Harju maakond,37,245,25.1356324047,59.4477133397
178,780,74,31,30,VODAV,28.06833056,59.40526944,Vaivara vald,851,Ida-Viru maakond,44,851,27.8827796677,59.331780323
179,455,73,640,639,PALJA,24.70822222,59.46060556,Tallinna linn,784,Harju maakond,37,784,24.7436642049,59.424938231
180,920,73,293,292,VAHTP,26.72444167,58.41722222,Tartu vald,794,Tartu maakond,78,794,26.7415817031,58.4772473633
181,897,73,526,525,LRAND,28.00943889,59.440275,Narva-Jõesuu linn,513,Ida-Viru maakond,44,513,28.0253964715,59.4423066492
182,150,73,97,96,JOHVI,27.41305,59.35221111,Jõhvi vald,251,Ida-Viru maakond,44,251,27.4083585251,59.3424391632
183,898,73,709,708,MELIK,24.83443889,59.45028056,Tallinna linn,784,Harju maakond,37,784,24.7436642049,59.424938231
184,250,72,543,542,KOJAR,27.27027222,59.40139167,Kohtla-Järve linn,322,Ida-Viru maakond,44,322,27.339327476,59.3651226829
185,251,71,544,543,KOJOL,27.29039167,59.40697222,Kohtla-Järve linn,322,Ida-Viru maakond,44,322,27.339327476,59.3651226829
186,646,71,624,623,TAMMS,24.67499444,59.40611389,Tallinna linn,784,Harju maakond,37,784,24.7436642049,59.424938231
187,1014,70,260,259,JMOIS,25.68277778,59.24388889,Tapa vald,790,Lääne-Viru maakond,59,790,25.8669577976,59.2416944868
188,587,70,665,664,SALME,24.72973889,59.44480556,Tallinna linn,784,Harju maakond,37,784,24.7436642049,59.424938231
189,938,70,62,61,AAMAS,27.15611111,59.43527778,Lüganuse vald,437,Ida-Viru maakond,44,437,27.0835259224,59.4002894147
190,603,70,527,526,SILLA,27.75916667,59.39860833,Sillamäe linn,735,Ida-Viru maakond,44,735,27.7427925153,59.3992002053
191,233,69,869,868,KIVI,26.98304167,59.35443889,Kiviõli linn,309,Ida-Viru maakond,44,309,26.9654423555,59.3545157863
192,101,69,281,280,HAADE,24.50887222,58.08055556,Häädemeeste vald,213,Pärnu maakond,67,213,24.5528002505,58.0345310154
193,180,69,556,555,KARDL,22.72195,58.9925,Kärdla linn,371,Hiiu maakond,39,371,22.7441082958,58.9961704299
194,68,67,403,402,ELVA,26.40378056,58.24111389,Konguta vald,331,Tartu maakond,78,331,26.3426820489,58.2686448903
195,406,67,626,625,MUULI,24.82889167,59.49277222,Tallinna linn,784,Harju maakond,37,784,24.7436642049,59.424938231
196,510,67,404,403,PUHJA,26.31915833,58.34165833,Puhja vald,605,Tartu maakond,78,605,26.3564706729,58.3716069049
197,226,67,310,309,KIISA,24.67711944,59.21546944,Kohila vald,317,Rapla maakond,70,317,24.7236090516,59.1579602861
198,766,66,679,678,VILMS,24.77446667,59.43824722,Tallinna linn,784,Harju maakond,37,784,24.7436642049,59.424938231
199,783,66,296,295,VOIST,24.4808,58.19780278,Tahkuranna vald,848,Pärnu maakond,67,848,24.5464435308,58.2387794658
200,309,65,114,113,LAULA,24.30526667,59.37194167,Keila vald,295,Harju maakond,37,295,24.291986319,59.3161718668
201,271,65,697,696,KPOEG,24.82916667,59.43721667,Tallinna linn,784,Harju maakond,37,784,24.7436642049,59.424938231
202,284,64,901,900,KURES,22.4925,58.267775,Kuressaare linn,349,Saare maakond,74,349,22.4901813122,58.2484865923
203,272,64,886,885,KREEN,28.19267222,59.35916389,Narva linn,511,Ida-Viru maakond,44,511,28.1088919858,59.3541913804
204,177,63,371,370,KANIS,23.18944167,58.50332778,Pöide vald,634,Saare maakond,74,634,23.1250728064,58.4906940195
205,440,63,704,703,PAASI,24.84805833,59.44861389,Tallinna linn,784,Harju maakond,37,784,24.7436642049,59.424938231
206,132,63,661,660,ILMAR,24.70306667,59.42668333,Tallinna linn,784,Harju maakond,37,784,24.7436642049,59.424938231
207,399,63,838,837,MUSAK,24.74791667,59.43141667,Tallinna linn,784,Harju maakond,37,784,24.7436642049,59.424938231
208,315,63,393,392,LEISI,22.68998889,58.56721667,Leisi vald,403,Saare maakond,74,403,22.6499337507,58.5261091659
209,704,62,942,941,TYMI,26.71443333,58.37832778,Tartu linn,795,Tartu maakond,78,795,26.728427209,58.3701665188
210,114,62,726,725,HARKU,24.63778056,59.41194167,Tallinna linn,784,Harju maakond,37,784,24.7436642049,59.424938231
211,978,61,853,852,SINIM,24.90083333,59.44527778,Tallinna linn,784,Harju maakond,37,784,24.7436642049,59.424938231
212,273,61,754,753,KRIST,24.72360278,59.42721667,Tallinna linn,784,Harju maakond,37,784,24.7436642049,59.424938231
213,424,59,429,428,NUSTA,26.495,58.05833333,Otepää vald,636,Valga maakond,82,636,26.4686913469,58.0260976842
214,782,59,729,728,VOIDU,24.71165833,59.37499167,Tallinna linn,784,Harju maakond,37,784,24.7436642049,59.424938231
215,763,58,536,535,VILHO,25.59832222,58.36805278,Viljandi linn,897,Viljandi maakond,84,897,25.59128476,58.3599325495
216,160,58,283,282,KABLI,24.44613056,57.99744167,Häädemeeste vald,213,Pärnu maakond,67,213,24.5528002505,58.0345310154
217,35,58,58,57,ASERI,26.84988056,59.45638889,Aseri vald,154,Ida-Viru maakond,44,154,26.8520754649,59.4347942165
218,1001,57,105,104,KJSIK,24.29972222,59.40722222,Harku vald,198,Harju maakond,37,198,24.4423527201,59.4035370046
219,830,57,760,759,TTYL,24.67110556,59.39610556,Tallinna linn,784,Harju maakond,37,784,24.7436642049,59.424938231
220,100,57,331,330,HAABN,24.81583056,59.51499167,Viimsi vald,890,Harju maakond,37,890,24.7892923114,59.5411908659
221,594,57,573,572,SAUGA,24.47585,58.39,Pärnu linn,625,Pärnu maakond,67,625,24.5259275582,58.3838964769
222,635,56,107,106,TABAS,24.54916667,59.42833056,Harku vald,198,Harju maakond,37,198,24.4423527201,59.4035370046
223,288,56,38,37,KUUSA,25.42221667,59.455275,Kuusalu vald,353,Harju maakond,37,353,25.6482832547,59.459399625
224,795,56,909,908,YHIKA,26.72750556,58.38360278,Tartu linn,795,Tartu maakond,78,795,26.728427209,58.3701665188
225,665,56,563,562,TEPAR,24.51055278,58.37304722,Pärnu linn,625,Pärnu maakond,67,625,24.5259275582,58.3838964769
226,994,56,878,877,VALEE,26.04527778,57.79277778,Valga linn,854,Valga maakond,82,854,26.0708032449,57.7784600776
227,790,56,585,584,WORUK,27.00270278,57.84094167,Võru linn,919,Võru maakond,86,919,27.0046819256,57.8384484973
228,660,56,949,948,TARU,26.73888056,58.36777778,Tartu linn,795,Tartu maakond,78,795,26.728427209,58.3701665188
229,104,55,725,724,HABER,24.64443056,59.41916667,Tallinna linn,784,Harju maakond,37,784,24.7436642049,59.424938231
230,945,55,535,534,HAKAS,23.55861111,58.93388889,Haapsalu linn,183,Lääne maakond,57,183,23.5396481618,58.9340921176
231,546,55,774,773,RGR,24.82289167,59.42914722,Tallinna linn,784,Harju maakond,37,784,24.7436642049,59.424938231
232,11,55,548,547,AHTME,27.42278889,59.32833333,Kohtla-Järve linn,322,Ida-Viru maakond,44,322,27.339327476,59.3651226829
233,667,55,578,577,TERVI,24.48502778,58.38350278,Pärnu linn,625,Pärnu maakond,67,625,24.5259275582,58.3838964769
234,706,55,68,67,TYRI,25.42954444,58.79328056,Türi vald,835,Järva maakond,51,835,25.4385840297,58.7374146658
235,41,54,273,272,AUDRU,24.31027222,58.41639167,Audru vald,159,Pärnu maakond,67,159,24.2251855422,58.4255615021
236,121,54,633,632,HOSPI,24.75471667,59.42888333,Tallinna linn,784,Harju maakond,37,784,24.7436642049,59.424938231
237,601,54,153,152,SHENK,24.81721667,59.40693889,Rae vald,653,Harju maakond,37,653,24.9518409711,59.3338931726
238,558,54,675,674,RMTEE,24.61041667,59.42989167,Tallinna linn,784,Harju maakond,37,784,24.7436642049,59.424938231
239,756,54,652,651,VIIMS,24.84313333,59.49485556,Tallinna linn,784,Harju maakond,37,784,24.7436642049,59.424938231
240,71,53,215,214,EMMAS,22.56666389,58.71971389,Emmaste vald,175,Hiiu maakond,39,175,22.5591335357,58.7747159399
241,374,52,733,732,MERAK,24.85905556,59.44715,Tallinna linn,784,Harju maakond,37,784,24.7436642049,59.424938231
242,602,52,714,713,SIILI,24.70415556,59.40944167,Tallinna linn,784,Harju maakond,37,784,24.7436642049,59.424938231
243,683,52,369,368,TORGU,22.07915833,57.97777778,Torgu vald,807,Saare maakond,74,807,22.0919165135,57.9884134636
244,649,52,418,417,TAMSA,26.09110833,59.15889444,Tamsalu vald,786,Lääne-Viru maakond,59,786,26.1076570168,59.1589436571
245,240,52,837,836,KMEHE,24.75360278,59.43027222,Tallinna linn,784,Harju maakond,37,784,24.7436642049,59.424938231
246,419,51,243,242,NOARO,23.48110833,59.02943889,Noarootsi vald,520,Lääne maakond,57,520,23.5817434761,59.0971187124
247,525,51,565,564,RAEKY,24.57442222,58.35653333,Pärnu linn,625,Pärnu maakond,67,625,24.5259275582,58.3838964769
248,14,51,905,904,AKADE,26.72083056,58.37582778,Tartu linn,795,Tartu maakond,78,795,26.728427209,58.3701665188
249,577,50,849,848,SAASE,24.68819167,59.40983056,Tallinna linn,784,Harju maakond,37,784,24.7436642049,59.424938231
250,572,50,386,385,RUHNU,23.25666389,57.80610556,Ruhnu vald,689,Saare maakond,74,689,23.2437809746,57.8013325815
251,462,50,567,566,PAPIN,24.5425,58.37333056,Pärnu linn,625,Pärnu maakond,67,625,24.5259275582,58.3838964769
252,850,50,579,578,PKUKE,24.51055556,58.3825,Pärnu linn,625,Pärnu maakond,67,625,24.5259275582,58.3838964769
253,407,50,336,335,MUUSA,24.96079444,59.49099722,Viimsi vald,890,Harju maakond,37,890,24.7892923114,59.5411908659
254,39,50,143,142,ASTE,22.46056667,58.33444167,Kaarma vald,270,Saare maakond,74,270,22.4795597872,58.3319825545
255,829,49,893,892,NRAHU,28.17611667,59.39250556,Narva linn,511,Ida-Viru maakond,44,511,28.1088919858,59.3541913804
256,383,49,321,320,MIKIT,27.55444167,58.00526944,Mikitamäe vald,465,Põlva maakond,65,465,27.5335268804,58.0112688888
257,969,49,549,548,PURUT,27.4175,59.33638889,Kohtla-Järve linn,322,Ida-Viru maakond,44,322,27.339327476,59.3651226829
258,555,49,294,293,RLUUL,24.58779167,58.29268889,Tahkuranna vald,848,Pärnu maakond,67,848,24.5464435308,58.2387794658
259,613,49,695,694,SOLE,24.69889444,59.44944167,Tallinna linn,784,Harju maakond,37,784,24.7436642049,59.424938231
260,772,49,94,93,VIRTS,23.525,58.57416389,Hanila vald,195,Lääne maakond,57,195,23.654080239,58.6087927103
261,102,48,423,422,HAAGE,26.61889167,58.35221667,Tähtvere vald,831,Tartu maakond,78,831,26.5822483073,58.3941565369
262,524,48,480,479,RAE,25.27764444,58.71483056,Vändra vald,929,Pärnu maakond,67,929,24.9665498661,58.6423249126
263,797,48,851,850,YITEH,24.740275,59.41860556,Tallinna linn,784,Harju maakond,37,784,24.7436642049,59.424938231
264,526,48,591,590,RAGAQ,26.37703056,59.33952778,Rakvere linn,663,Lääne-Viru maakond,59,663,26.3628740797,59.3453399665
265,690,48,923,922,TSANG,26.75443333,58.37966389,Tartu linn,795,Tartu maakond,78,795,26.728427209,58.3701665188
266,255,47,39,38,KONNU,25.71194167,59.45971667,Kuusalu vald,353,Harju maakond,37,353,25.6482832547,59.459399625
267,125,47,857,856,HUMAN,24.79908056,59.42287778,Tallinna linn,784,Harju maakond,37,784,24.7436642049,59.424938231
268,633,47,918,917,ZEPEL,26.73685556,58.37538333,Tartu linn,795,Tartu maakond,78,795,26.728427209,58.3701665188
269,768,47,125,124,VINNI,26.41930278,59.30473056,Vinni vald,900,Lääne-Viru maakond,59,900,26.6047305328,59.2134172305
270,109,47,731,730,HANSA,24.74583333,59.42721944,Tallinna linn,784,Harju maakond,37,784,24.7436642049,59.424938231
271,205,47,236,235,KEHRA,25.3236,59.33555556,Anija vald,140,Harju maakond,37,140,25.4558104801,59.3107524694
272,62,47,670,669,EHTE,24.69981667,59.44450278,Tallinna linn,784,Harju maakond,37,784,24.7436642049,59.424938231
273,528,47,862,861,RAHUM,24.70035278,59.38795556,Tallinna linn,784,Harju maakond,37,784,24.7436642049,59.424938231
274,479,47,735,734,PETER,24.85,59.43027222,Tallinna linn,784,Harju maakond,37,784,24.7436642049,59.424938231
275,342,46,927,926,LOUNA,26.67693889,58.35694167,Tartu linn,795,Tartu maakond,78,795,26.728427209,58.3701665188
276,387,46,784,783,MMAJA,24.75943333,59.43194167,Tallinna linn,784,Harju maakond,37,784,24.7436642049,59.424938231
277,638,46,380,379,TAGAV,22.87577778,58.51660833,Orissaare vald,550,Saare maakond,74,550,22.9316420857,58.5620476813
278,295,46,222,221,LAAGR,24.60833056,59.34916667,Saue vald,727,Harju maakond,37,727,24.5322818364,59.286018621
279,131,46,282,281,IKLA,24.38277222,57.87666667,Häädemeeste vald,213,Pärnu maakond,67,213,24.5528002505,58.0345310154
280,893,46,391,390,KUIVA,23.35666944,58.58916111,Muhu vald,478,Saare maakond,74,478,23.2478417057,58.6005172996
281,921,45,204,203,VIGAQ,24.39526944,58.70611111,Vigala vald,884,Rapla maakond,70,884,24.2996619838,58.7367440673
282,615,45,383,382,SONDA,26.84339167,59.34969167,Sonda vald,751,Ida-Viru maakond,44,751,26.8419848877,59.3421793773
283,896,45,713,712,LIIOJ,24.78472778,59.44138333,Tallinna linn,784,Harju maakond,37,784,24.7436642049,59.424938231
284,672,45,646,645,TISKR,24.55588056,59.43615556,Tallinna linn,784,Harju maakond,37,784,24.7436642049,59.424938231
285,47,43,669,668,BAMAN,24.70423056,59.45152222,Tallinna linn,784,Harju maakond,37,784,24.7436642049,59.424938231
286,762,43,850,849,VILDE,24.68833056,59.40360833,Tallinna linn,784,Harju maakond,37,784,24.7436642049,59.424938231
287,547,42,211,210,RIISI,24.32193889,59.12471944,Nissi vald,518,Harju maakond,37,518,24.2382004188,59.1080023858
288,647,42,416,415,TAMQ,26.16388056,59.16638333,Tamsalu vald,786,Lääne-Viru maakond,59,786,26.1076570168,59.1589436571
289,61,42,33,32,EESMA,27.87630556,59.26635556,Vaivara vald,851,Ida-Viru maakond,44,851,27.8827796677,59.331780323
290,20,42,777,776,ALMAR,24.66432778,59.42784444,Tallinna linn,784,Harju maakond,37,784,24.7436642049,59.424938231
291,143,42,858,857,JARVE,24.71944722,59.39816667,Tallinna linn,784,Harju maakond,37,784,24.7436642049,59.424938231
292,697,42,470,469,TUHAL,25.65481389,58.17108056,Karksi vald,600,Viljandi maakond,84,600,25.5879194851,58.0854206469
293,875,41,824,823,VALGE,24.81333333,59.44360833,Tallinna linn,784,Harju maakond,37,784,24.7436642049,59.424938231
294,193,41,906,905,KASTA,26.71500556,58.37083056,Tartu linn,795,Tartu maakond,78,795,26.728427209,58.3701665188
295,385,41,703,702,MKASE,24.81834444,59.45714167,Tallinna linn,784,Harju maakond,37,784,24.7436642049,59.424938231
296,586,40,93,92,SALEV,23.57833333,58.68971944,Hanila vald,195,Lääne maakond,57,195,23.654080239,58.6087927103
297,394,40,638,637,MPOIK,24.67950278,59.46169167,Tallinna linn,784,Harju maakond,37,784,24.7436642049,59.424938231
298,540,39,322,321,RAPIN,27.4475,58.11444167,Räpina vald,707,Põlva maakond,65,707,27.3922618734,58.1085708729
299,203,39,139,138,KDRIN,26.14027222,59.34860556,Kadrina vald,272,Lääne-Viru maakond,59,272,26.0480668662,59.3711160051
300,750,39,246,245,VERGI,26.09999444,59.60055556,Vihula vald,887,Lääne-Viru maakond,59,887,26.0851333592,59.5393460708
301,3,39,224,223,AASMA,24.48944444,59.24138889,Saue vald,727,Harju maakond,37,727,24.5322818364,59.286018621
302,292,39,672,671,KYBER,24.66084444,59.39795278,Tallinna linn,784,Harju maakond,37,784,24.7436642049,59.424938231
303,648,39,223,222,TAMRO,24.62443889,59.34583056,Saue vald,727,Harju maakond,37,727,24.5322818364,59.286018621
304,307,38,668,667,LAKI,24.679375,59.42165556,Tallinna linn,784,Harju maakond,37,784,24.7436642049,59.424938231
305,468,38,558,557,PARPI,24.50138333,58.40860556,Pärnu linn,625,Pärnu maakond,67,625,24.5259275582,58.3838964769
306,382,38,332,331,MIISA,24.81764167,59.50063889,Viimsi vald,890,Harju maakond,37,890,24.7892923114,59.5411908659
307,216,38,836,835,KERGE,24.75613056,59.43241389,Tallinna linn,784,Harju maakond,37,784,24.7436642049,59.424938231
308,703,38,929,928,TVESK,26.70526667,58.37055278,Tartu linn,795,Tartu maakond,78,795,26.728427209,58.3701665188
309,29,37,503,502,ARE,24.57721389,58.53110556,Are vald,149,Pärnu maakond,67,149,24.6416282036,58.5344075958
310,359,37,694,693,MALEV,24.68805278,59.45546944,Tallinna linn,784,Harju maakond,37,784,24.7436642049,59.424938231
311,105,37,201,200,HALIQ,24.51471667,58.60194167,Halinga vald,188,Pärnu maakond,67,188,24.4808297484,58.6210534846
312,946,37,12,11,HAPSE,25.2925,59.49694444,Jõelähtme vald,245,Harju maakond,37,245,25.1356324047,59.4477133397
313,334,37,635,634,LLAOD,24.72639444,59.38472222,Tallinna linn,784,Harju maakond,37,784,24.7436642049,59.424938231
314,1004,37,277,276,MMETS,24.41333333,58.39583333,Audru vald,159,Pärnu maakond,67,159,24.2251855422,58.4255615021
315,777,37,468,467,VKOPU,25.30528056,58.32083333,Kõpu vald,360,Viljandi maakond,84,360,25.1731504813,58.352893808
316,666,37,604,603,TERAS,24.63611389,59.42638333,Tallinna linn,784,Harju maakond,37,784,24.7436642049,59.424938231
317,595,37,137,136,SAUKO,24.50855556,58.43130833,Sauga vald,730,Pärnu maakond,67,730,24.5652136738,58.447373832
318,400,36,384,383,MUSJA,22.22583333,58.47194167,Mustjala vald,483,Saare maakond,74,483,22.3148930291,58.4922462747
319,718,36,812,811,VABAK,24.70055278,59.38055556,Tallinna linn,784,Harju maakond,37,784,24.7436642049,59.424938231
320,401,36,810,809,MUSKO,24.66193333,59.37250556,Tallinna linn,784,Harju maakond,37,784,24.7436642049,59.424938231
321,735,36,264,263,VARBL,23.72055278,58.44277222,Varbla vald,863,Pärnu maakond,67,863,23.8129851148,58.4584799599
322,446,36,897,896,PAIDE,25.56310833,58.88735556,Paide linn,566,Järva maakond,51,566,25.5564002624,58.8849740965
323,517,36,191,190,PUURQ,26.28444167,58.57499444,Puurmani vald,611,Jõgeva maakond,49,611,26.2738059787,58.5865757379
324,848,36,453,452,VOIVA,25.63142778,58.48934167,Suure-Jaani vald,758,Viljandi maakond,84,758,25.3870812447,58.5058230887
325,764,36,540,539,VILJA,25.59459167,58.37431944,Viljandi linn,897,Viljandi maakond,84,897,25.59128476,58.3599325495
326,492,36,706,705,PKOSE,24.84888333,59.45494444,Tallinna linn,784,Harju maakond,37,784,24.7436642049,59.424938231
327,133,35,422,421,ILTSA,26.55694444,58.39888333,Tähtvere vald,831,Tartu maakond,78,831,26.5822483073,58.3941565369
328,426,35,727,726,OISMA,24.65645556,59.41347778,Tallinna linn,784,Harju maakond,37,784,24.7436642049,59.424938231
329,984,35,924,923,TANNE,26.76416667,58.37833333,Tartu linn,795,Tartu maakond,78,795,26.728427209,58.3701665188
330,381,34,637,636,MIIDU,24.82972778,59.49583056,Tallinna linn,784,Harju maakond,37,784,24.7436642049,59.424938231
331,885,34,700,699,ELQOT,24.83305833,59.43055833,Tallinna linn,784,Harju maakond,37,784,24.7436642049,59.424938231
332,279,34,712,711,KUMU,24.79666667,59.43638056,Tallinna linn,784,Harju maakond,37,784,24.7436642049,59.424938231
333,231,34,378,377,KIPI,22.02795556,58.26681389,Lümanda vald,440,Saare maakond,74,440,22.0288966873,58.2696309438
334,799,34,864,863,YLEM,24.79361667,59.42110556,Tallinna linn,784,Harju maakond,37,784,24.7436642049,59.424938231
335,736,34,358,357,VARBO,24.44526667,59.02250278,Märjamaa vald,504,Rapla maakond,70,504,24.3999444472,58.9045365106
336,301,34,288,287,LAHTE,26.67471389,58.48054722,Tartu vald,794,Tartu maakond,78,794,26.7415817031,58.4772473633
337,652,34,256,255,TAPAK,25.96499444,59.26110556,Tapa vald,790,Lääne-Viru maakond,59,790,25.8669577976,59.2416944868
338,263,34,220,219,KORGE,22.49471944,58.97583056,Kõrgessaare vald,392,Hiiu maakond,39,392,22.4813018675,58.9479318366
339,352,34,186,185,MAAJA,26.76334444,58.61749722,Tabivere vald,773,Jõgeva maakond,49,773,26.6450420263,58.5820163316
340,22,34,330,329,AMP,24.84896944,59.52144167,Viimsi vald,890,Harju maakond,37,890,24.7892923114,59.5411908659
341,853,34,357,356,HAIMR,24.44737222,58.86879444,Märjamaa vald,504,Rapla maakond,70,504,24.3999444472,58.9045365106
342,16,34,298,297,ALATS,27.12639167,58.59888333,Alatskivi vald,126,Tartu maakond,78,126,27.1125279825,58.6054711115
343,107,33,253,252,HALSO,26.27055556,59.42805556,Haljala vald,190,Lääne-Viru maakond,59,190,26.2476508743,59.4492624683
344,442,33,513,512,PADA,26.76416944,59.44444167,Viru-Nigula vald,902,Lääne-Viru maakond,59,902,26.625123442,59.4685844133
345,223,33,151,150,KIIDJ,27.02110556,58.12333056,Vastse-Kuuste vald,872,Põlva maakond,65,872,26.9558111159,58.1699521452
346,566,33,135,134,RONGU,26.26193056,58.13776944,Rõngu vald,694,Tartu maakond,78,694,26.2417326096,58.1674141664
347,156,33,164,163,JYRI,24.89944167,59.36193889,Rae vald,653,Harju maakond,37,653,24.9518409711,59.3338931726
348,882,33,561,560,AIDEK,24.48915833,58.39916389,Pärnu linn,625,Pärnu maakond,67,625,24.5259275582,58.3838964769
349,569,32,20,19,ROOSN,25.72943333,59.01804722,Roosna-Alliku vald,684,Järva maakond,51,684,25.7154468055,59.0089999845
350,138,32,13,12,JAGLQ,25.19360556,59.45694167,Jõelähtme vald,245,Harju maakond,37,245,25.1356324047,59.4477133397
351,943,32,722,721,DELPL,24.730562,59.402496,Tallinna linn,784,Harju maakond,37,784,24.7436642049,59.424938231
352,942,32,745,744,BYROO,24.86444444,59.43305556,Tallinna linn,784,Harju maakond,37,784,24.7436642049,59.424938231
353,98,32,605,604,GAAS,24.74833056,59.42778056,Tallinna linn,784,Harju maakond,37,784,24.7436642049,59.424938231
354,755,32,338,337,VIIMQ,24.84047778,59.50660556,Viimsi vald,890,Harju maakond,37,890,24.7892923114,59.5411908659
355,838,32,891,890,UUSKY,28.17473056,59.36916389,Narva linn,511,Ida-Viru maakond,44,511,28.1088919858,59.3541913804
356,778,32,149,148,VMAAR,26.23860833,59.12443889,Väike-Maarja vald,926,Lääne-Viru maakond,59,926,26.3256795348,59.0731374093
357,5,32,24,23,AEGVI,25.60415833,59.29027778,Aegviidu vald,112,Harju maakond,37,112,25.6202148665,59.2794606822
358,609,32,451,450,SJARL,25.48444444,58.53499167,Suure-Jaani vald,758,Viljandi maakond,84,758,25.3870812447,58.5058230887
359,688,31,739,738,TOSEL,24.71470556,59.40361667,Tallinna linn,784,Harju maakond,37,784,24.7436642049,59.424938231
360,645,31,334,333,TAMMN,24.89179444,59.54102778,Viimsi vald,890,Harju maakond,37,890,24.7892923114,59.5411908659
361,592,31,516,515,SAUE,24.57027222,59.31749167,Saue linn,728,Harju maakond,37,728,24.5566506425,59.3199884553
362,1005,31,571,570,PASPO,24.53444444,58.37638889,Pärnu linn,625,Pärnu maakond,67,625,24.5259275582,58.3838964769
363,258,31,702,701,KOORT,24.83004167,59.44133056,Tallinna linn,784,Harju maakond,37,784,24.7436642049,59.424938231
364,379,31,394,393,METSQ,22.53284722,58.57343889,Leisi vald,403,Saare maakond,74,403,22.6499337507,58.5261091659
365,298,30,266,265,LAEKV,26.51999722,59.07610833,Laekvere vald,381,Lääne-Viru maakond,59,381,26.6399720375,59.0570335364
366,585,30,233,232,SAKU,24.66805278,59.30110833,Saku vald,718,Harju maakond,37,718,24.6988650156,59.2833292757
367,757,30,461,460,VIIRA,25.64778889,58.35444167,Viiratsi vald,892,Viljandi maakond,84,892,25.7842598963,58.3788282512
368,491,30,92,91,PIVAR,23.61630833,58.54385833,Hanila vald,195,Lääne maakond,57,195,23.654080239,58.6087927103
369,432,30,907,906,OPETA,26.71665833,58.375,Tartu linn,795,Tartu maakond,78,795,26.728427209,58.3701665188
370,548,30,664,663,RIKS,24.70541389,59.43633889,Tallinna linn,784,Harju maakond,37,784,24.7436642049,59.424938231
371,218,30,241,240,KERNU,24.49971389,59.13693889,Kernu vald,297,Harju maakond,37,297,24.4314044575,59.1689992627
372,748,30,289,288,VEDU,26.76807778,58.50228056,Tartu vald,794,Tartu maakond,78,794,26.7415817031,58.4772473633
373,82,30,828,827,ERIC,24.73471667,59.40330278,Tallinna linn,784,Harju maakond,37,784,24.7436642049,59.424938231
374,322,30,199,198,LIBA,24.46916667,58.65749167,Halinga vald,188,Pärnu maakond,67,188,24.4808297484,58.6210534846
375,678,29,831,830,TONDI,24.73610556,59.40999167,Tallinna linn,784,Harju maakond,37,784,24.7436642049,59.424938231
376,605,29,147,146,SIMUN,26.39138889,59.04526944,Väike-Maarja vald,926,Lääne-Viru maakond,59,926,26.3256795348,59.0731374093
377,192,29,210,209,KASSA,22.83027778,58.78749167,Käina vald,368,Hiiu maakond,39,368,22.7229949782,58.836709045
378,922,29,539,538,VVAKS,25.58054444,58.36110556,Viljandi linn,897,Viljandi maakond,84,897,25.59128476,58.3599325495
379,438,28,202,201,PAARD,24.41278056,58.76861389,Vigala vald,884,Rapla maakond,70,884,24.2996619838,58.7367440673
380,788,28,584,583,VORRJ,27.02416667,57.82749444,Võru linn,919,Võru maakond,86,919,27.0046819256,57.8384484973
381,245,28,308,307,KOHIL,24.73054444,59.17028056,Kohila vald,317,Rapla maakond,70,317,24.7236090516,59.1579602861
382,521,28,658,657,RAAMA,24.73905,59.4304,Tallinna linn,784,Harju maakond,37,784,24.7436642049,59.424938231
383,950,28,231,230,JOGIS,24.53833333,59.28416667,Saku vald,718,Harju maakond,37,718,24.6988650156,59.2833292757
384,749,27,780,779,VEEPJ,24.77518333,59.41933056,Tallinna linn,784,Harju maakond,37,784,24.7436642049,59.424938231
385,321,27,612,611,LHALL,24.75309722,59.44663056,Tallinna linn,784,Harju maakond,37,784,24.7436642049,59.424938231
386,730,27,881,880,VALVT,26.03943056,57.77376944,Valga linn,854,Valga maakond,82,854,26.0708032449,57.7784600776
387,564,27,85,84,ROKYL,23.43249167,58.91555556,Ridala vald,674,Lääne maakond,57,674,23.5860176956,58.8671861188
388,78,27,710,709,EOK,24.79966389,59.44546667,Tallinna linn,784,Harju maakond,37,784,24.7436642049,59.424938231
389,895,27,109,108,LIIKV,24.41334167,59.42916111,Harku vald,198,Harju maakond,37,198,24.4423527201,59.4035370046
390,146,27,14,13,JOELA,25.14500556,59.43971944,Jõelähtme vald,245,Harju maakond,37,245,25.1356324047,59.4477133397
391,873,27,56,55,TOISA,27.51361389,59.42528056,Toila vald,802,Ida-Viru maakond,44,802,27.5895753196,59.3648185396
392,791,26,653,652,VOSA,24.85181944,59.48216389,Tallinna linn,784,Harju maakond,37,784,24.7436642049,59.424938231
393,239,26,113,112,KLOOG,24.25716667,59.32078056,Keila vald,295,Harju maakond,37,295,24.291986319,59.3161718668
394,497,26,768,767,POLLU,24.6454,59.36781944,Tallinna linn,784,Harju maakond,37,784,24.7436642049,59.424938231
395,465,26,474,473,PARKS,26.99510556,57.89669167,Võru vald,918,Võru maakond,86,918,26.9975873412,57.8357483266
396,308,26,514,513,LASVA,27.17638056,57.85249444,Lasva vald,389,Võru maakond,86,389,27.1742422182,57.8719624144
397,293,26,433,432,KYLIQ,26.60444722,58.3275,Ülenurme vald,949,Tartu maakond,78,949,26.6774712378,58.3116112752
398,305,25,242,241,LAITS,24.37583056,59.19389167,Kernu vald,297,Harju maakond,37,297,24.4314044575,59.1689992627
399,977,25,815,814,SERVA,24.68972222,59.37277778,Tallinna linn,784,Harju maakond,37,784,24.7436642049,59.424938231
400,860,25,708,707,FILMI,24.78083056,59.44083056,Tallinna linn,784,Harju maakond,37,784,24.7436642049,59.424938231
401,705,25,67,66,TYREE,25.42970556,58.81904444,Türi vald,835,Järva maakond,51,835,25.4385840297,58.7374146658
402,825,25,276,275,ULLAS,24.43886667,58.42438889,Audru vald,159,Pärnu maakond,67,159,24.2251855422,58.4255615021
403,118,25,314,313,HIMMA,27.06261667,57.98355556,Laheda vald,385,Põlva maakond,65,385,27.0135916826,57.9597104485
404,606,25,86,85,SINAL,23.57582778,58.83250278,Ridala vald,674,Lääne maakond,57,674,23.5860176956,58.8671861188
405,254,25,91,90,KOMSI,23.62861389,58.62416389,Hanila vald,195,Lääne maakond,57,195,23.654080239,58.6087927103
406,297,25,617,616,LADA,24.65691389,59.40598056,Tallinna linn,784,Harju maakond,37,784,24.7436642049,59.424938231
407,610,25,9,8,SMETS,24.66415556,58.35999444,Paikuse vald,568,Pärnu maakond,67,568,24.7766632096,58.3647089971
408,449,25,898,897,PAITF,25.55529167,58.88666389,Paide linn,566,Järva maakond,51,566,25.5564002624,58.8849740965
409,904,25,129,128,PIIRA,26.37499167,59.32305556,Vinni vald,900,Lääne-Viru maakond,59,900,26.6047305328,59.2134172305
410,448,24,8,7,PAIKQ,24.64472222,58.37638333,Paikuse vald,568,Pärnu maakond,67,568,24.7766632096,58.3647089971
411,405,24,871,870,MUUGA,24.9686,59.48111389,Maardu linn,446,Harju maakond,37,446,24.9736738173,59.4652601869
412,747,24,389,388,VATTA,22.66939167,58.24147222,Pihtla vald,592,Saare maakond,74,592,22.7098784183,58.3343904489
413,1019,24,894,893,KUDRU,28.05416389,59.42722222,Narva linn,511,Ida-Viru maakond,44,511,28.1088919858,59.3541913804
414,325,24,656,655,LIIMI,24.69389444,59.42083333,Tallinna linn,784,Harju maakond,37,784,24.7436642049,59.424938231
415,636,24,185,184,TABIV,26.59305278,58.55138056,Tabivere vald,773,Jõgeva maakond,49,773,26.6450420263,58.5820163316
416,200,24,71,70,KAUKS,27.23027222,59.00389167,Iisaku vald,224,Ida-Viru maakond,44,224,27.3310010544,59.0871125213
417,740,23,317,316,VARSQ,27.61735833,57.95774444,Värska vald,934,Põlva maakond,65,934,27.6561197357,57.900398725
418,157,23,165,164,JYRKA,24.91973889,59.35750556,Rae vald,653,Harju maakond,37,653,24.9518409711,59.3338931726
419,699,23,933,932,TULBI,26.69526389,58.37055556,Tartu linn,795,Tartu maakond,78,795,26.728427209,58.3701665188
420,398,23,100,99,MURST,24.42920833,59.45702222,Harku vald,198,Harju maakond,37,198,24.4423527201,59.4035370046
421,963,23,437,436,OSSU,26.67555556,58.36777778,Ülenurme vald,949,Tartu maakond,78,949,26.6774712378,58.3116112752
422,686,23,795,794,TORUS,24.78084444,59.432,Tallinna linn,784,Harju maakond,37,784,24.7436642049,59.424938231
423,366,23,355,354,MARJA,24.42854167,58.90916667,Märjamaa vald,504,Rapla maakond,70,504,24.3999444472,58.9045365106
424,607,22,582,581,SINDI,24.66444444,58.40971944,Sindi linn,741,Pärnu maakond,67,741,24.6535483401,58.400587765
425,900,22,899,898,PAIEE,25.52945,58.877775,Paide linn,566,Järva maakond,51,566,25.5564002624,58.8849740965
426,162,22,616,615,KADAK,24.64554444,59.40166389,Tallinna linn,784,Harju maakond,37,784,24.7436642049,59.424938231
427,964,22,825,824,PAALA,24.81222222,59.4325,Tallinna linn,784,Harju maakond,37,784,24.7436642049,59.424938231
428,684,22,301,300,TORI,24.83415833,58.48028056,Tori vald,808,Pärnu maakond,67,808,24.881108175,58.4803864106
429,66,22,947,946,EKAUB,26.73253056,58.36043889,Tartu linn,795,Tartu maakond,78,795,26.728427209,58.3701665188
430,147,22,196,195,JOGEV,26.36194444,58.73833333,Jõgeva vald,248,Jõgeva maakond,49,248,26.3858342363,58.7944971011
431,854,21,681,680,ITKOL,24.66424167,59.39532222,Tallinna linn,784,Harju maakond,37,784,24.7436642049,59.424938231
432,787,21,90,89,VORMS,23.23527778,58.99556389,Vormsi vald,907,Lääne maakond,57,907,23.2443374601,59.0036951804
433,182,21,411,410,KAREV,26.42766667,58.45174444,Laeva vald,383,Tartu maakond,78,383,26.3672257232,58.468600133
434,905,21,763,762,PRIIS,24.88889167,59.45277778,Tallinna linn,784,Harju maakond,37,784,24.7436642049,59.424938231
435,10,21,547,546,AHTKO,27.46526667,59.31443889,Kohtla-Järve linn,322,Ida-Viru maakond,44,322,27.339327476,59.3651226829
436,545,21,435,434,REOLA,26.70899167,58.29625,Ülenurme vald,949,Tartu maakond,78,949,26.6774712378,58.3116112752
437,982,21,245,244,SUTLE,23.59777778,59.06111111,Noarootsi vald,520,Lääne maakond,57,520,23.5817434761,59.0971187124
438,722,21,155,154,VAIDA,24.97500278,59.27971389,Rae vald,653,Harju maakond,37,653,24.9518409711,59.3338931726
439,202,21,313,312,KAVAR,24.19910833,58.27524167,Tõstamaa vald,826,Pärnu maakond,67,826,24.0449357672,58.3486492967
440,330,21,471,470,LILLI,25.54721944,58.00139167,Karksi vald,600,Viljandi maakond,84,600,25.5879194851,58.0854206469
441,459,21,385,384,PANGA,22.35351667,58.53244167,Mustjala vald,483,Saare maakond,74,483,22.3148930291,58.4922462747
442,134,21,173,172,IMAVE,25.75778889,58.74777778,Imavere vald,234,Järva maakond,51,234,25.7501896391,58.7569723628
443,852,20,251,250,ESSU,26.36973056,59.42416389,Haljala vald,190,Lääne-Viru maakond,59,190,26.2476508743,59.4492624683
444,403,20,847,846,MUSTA,24.70011667,59.40142222,Tallinna linn,784,Harju maakond,37,784,24.7436642049,59.424938231
445,281,20,523,522,KUNKO,26.52926389,59.49871944,Kunda linn,345,Lääne-Viru maakond,59,345,26.5319062215,59.5064962026
446,158,20,843,842,KAARE,24.76119444,59.41765278,Tallinna linn,784,Harju maakond,37,784,24.7436642049,59.424938231
447,222,20,225,224,KIIA,24.49055556,59.36244167,Saue vald,727,Harju maakond,37,727,24.5322818364,59.286018621
448,396,20,188,187,MULLA,26.59472778,58.60721944,Palamuse vald,578,Jõgeva maakond,49,578,26.5802040503,58.6610106034
449,505,20,737,736,PRINT,24.74574722,59.42553333,Tallinna linn,784,Harju maakond,37,784,24.7436642049,59.424938231
450,201,20,382,381,KAVAN,22.83971667,58.60388333,Orissaare vald,550,Saare maakond,74,550,22.9316420857,58.5620476813
451,691,20,413,412,TSIRG,26.16304722,57.85776667,Tõlliste vald,820,Valga maakond,82,820,26.2252231531,57.8484788268
452,618,20,370,369,SORVE,22.12961667,58.04911389,Torgu vald,807,Saare maakond,74,807,22.0919165135,57.9884134636
453,857,20,362,361,ROA,24.79971944,59.09721944,Rapla vald,669,Rapla maakond,70,669,24.725644867,59.0344063535
454,148,19,522,521,JOGPO,26.39860833,58.745,Jõgeva linn,249,Jõgeva maakond,49,249,26.3938680383,58.7440702203
455,344,19,484,483,LUHAM,27.37778333,57.64305556,Misso vald,468,Võru maakond,86,468,27.2589043539,57.6092325081
456,221,19,311,310,KIHNU,23.97332222,58.12055833,Kihnu vald,303,Pärnu maakond,67,303,23.9850546137,58.1293507245
457,187,19,557,556,KARKE,22.74804722,59.00305278,Kärdla linn,371,Hiiu maakond,39,371,22.7441082958,58.9961704299
458,252,19,37,36,KOLGA,25.57555556,59.48888889,Kuusalu vald,353,Harju maakond,37,353,25.6482832547,59.459399625
459,294,19,132,131,KYLIT,26.57075556,58.29570278,Nõo vald,528,Tartu maakond,78,528,26.5121225868,58.2521525734
460,416,19,11,10,NEEME,25.16435556,59.52916667,Jõelähtme vald,245,Harju maakond,37,245,25.1356324047,59.4477133397
461,119,19,472,471,HOLRE,25.72000556,58.28249167,Paistu vald,570,Viljandi maakond,84,570,25.6607621256,58.268912026
462,19,19,61,60,ALJOE,27.43581944,59.01360833,Alajõe vald,122,Ida-Viru maakond,44,122,27.5107612034,59.0269199704
463,506,19,608,607,PRITS,24.76382778,59.43522222,Tallinna linn,784,Harju maakond,37,784,24.7436642049,59.424938231
464,34,19,154,153,ARVAL,25.01896944,59.24969444,Rae vald,653,Harju maakond,37,653,24.9518409711,59.3338931726
465,841,19,174,173,AVERE,25.9075,58.71194444,Põltsamaa vald,616,Jõgeva maakond,49,616,26.0095928999,58.6444906043
466,184,18,150,149,KARIL,26.93278889,58.15776944,Vastse-Kuuste vald,872,Põlva maakond,65,872,26.9558111159,58.1699521452
467,701,18,460,459,TUSTQ,25.79721944,58.40194167,Viiratsi vald,892,Viljandi maakond,84,892,25.7842598963,58.3788282512
468,480,18,572,571,PHAIG,24.54777778,58.38749167,Pärnu linn,625,Pärnu maakond,67,625,24.5259275582,58.3838964769
469,589,18,445,444,SANGA,26.28916667,57.92388333,Sangaste vald,724,Valga maakond,82,724,26.3148929573,57.9504198822
470,99,18,820,819,GLASK,24.80896944,59.42747778,Tallinna linn,784,Harju maakond,37,784,24.7436642049,59.424938231
471,731,18,481,480,VANDR,25.02027222,58.65083056,Vändra vald,929,Pärnu maakond,67,929,24.9665498661,58.6423249126
472,826,18,689,688,VUTI,24.708,59.41660833,Tallinna linn,784,Harju maakond,37,784,24.7436642049,59.424938231
473,881,18,623,622,SBOCK,24.74029167,59.43810556,Tallinna linn,784,Harju maakond,37,784,24.7436642049,59.424938231
474,23,18,945,944,ANKES,26.76750278,58.36832778,Tartu linn,795,Tartu maakond,78,795,26.728427209,58.3701665188
475,641,18,936,935,TAMAJ,26.68555556,58.38249444,Tartu linn,795,Tartu maakond,78,795,26.728427209,58.3701665188
476,987,18,730,729,TEEEH,24.65277778,59.41777778,Tallinna linn,784,Harju maakond,37,784,24.7436642049,59.424938231
477,498,18,521,520,POLMA,25.98249444,58.64555556,Põltsamaa linn,617,Jõgeva maakond,49,617,25.9761935201,58.6529832489
478,619,18,666,665,SOSTR,24.70412222,59.42332222,Tallinna linn,784,Harju maakond,37,784,24.7436642049,59.424938231
479,992,17,766,765,TULIK,24.72527778,59.42361111,Tallinna linn,784,Harju maakond,37,784,24.7436642049,59.424938231
480,993,17,35,34,VAIVA,27.87444444,59.37416667,Vaivara vald,851,Ida-Viru maakond,44,851,27.8827796677,59.331780323
481,219,17,218,217,KIDAS,22.61999167,59.00860556,Kõrgessaare vald,392,Hiiu maakond,39,392,22.4813018675,58.9479318366
482,362,17,802,801,MANNI,24.72806389,59.37305556,Tallinna linn,784,Harju maakond,37,784,24.7436642049,59.424938231
483,584,17,373,372,SAKLA,22.88026667,58.35971944,Valjala vald,858,Saare maakond,74,858,22.8510608852,58.4035129595
484,237,17,112,111,KJORL,24.27569444,59.39740833,Keila vald,295,Harju maakond,37,295,24.291986319,59.3161718668
485,711,17,198,197,ULVI,26.60860556,59.32305556,Rägavere vald,702,Lääne-Viru maakond,59,702,26.6471912895,59.3116380834
486,1012,17,807,806,RAADI,24.88444444,59.44,Tallinna linn,784,Harju maakond,37,784,24.7436642049,59.424938231
487,154,17,493,492,JUURU,24.89624167,59.08313056,Juuru vald,240,Rapla maakond,70,240,24.9413449715,59.0918655235
488,909,17,852,851,SIPEL,24.69804722,59.40694444,Tallinna linn,784,Harju maakond,37,784,24.7436642049,59.424938231
489,514,17,63,62,PURTS,27.01766667,59.41758056,Lüganuse vald,437,Ida-Viru maakond,44,437,27.0835259224,59.4002894147
490,9,16,328,327,AHJA,27.02777778,58.22333056,Ahja vald,117,Põlva maakond,65,117,27.0620522721,58.2054849103
491,533,16,587,586,RAKOL,26.37185833,59.35704444,Rakvere linn,663,Lääne-Viru maakond,59,663,26.3628740797,59.3453399665
492,503,16,333,332,PRANG,25.01079444,59.63789167,Viimsi vald,890,Harju maakond,37,890,24.7892923114,59.5411908659
493,476,16,74,73,PERMI,27.77609722,59.08582778,Illuka vald,229,Ida-Viru maakond,44,229,27.6299614086,59.1681013766
494,834,16,744,743,SAMER,24.74027778,59.42777778,Tallinna linn,784,Harju maakond,37,784,24.7436642049,59.424938231
495,422,16,469,468,NUIA,25.54805556,58.09805278,Karksi vald,600,Viljandi maakond,84,600,25.5879194851,58.0854206469
496,751,16,345,344,VERIQ,27.33944722,57.99527222,Veriora vald,879,Põlva maakond,65,879,27.299557483,57.9726892462
497,159,16,43,42,KABER,25.26499167,59.47360833,Kuusalu vald,353,Harju maakond,37,353,25.6482832547,59.459399625
498,129,16,948,947,IHAST,26.78361667,58.35388889,Tartu linn,795,Tartu maakond,78,795,26.728427209,58.3701665188
499,283,16,406,405,KUREP,26.83166667,58.31138889,Haaslava vald,185,Tartu maakond,78,185,26.8616711798,58.2863696206
500,723,15,813,812,VALDE,24.69221389,59.38416389,Tallinna linn,784,Harju maakond,37,784,24.7436642049,59.424938231
501,421,15,133,132,NOO,26.52887222,58.27305556,Nõo vald,528,Tartu maakond,78,528,26.5121225868,58.2521525734
502,570,15,914,913,ROPKA,26.72808889,58.34499444,Tartu linn,795,Tartu maakond,78,795,26.728427209,58.3701665188
503,456,15,189,188,PALMU,26.60582778,58.69360556,Palamuse vald,578,Jõgeva maakond,49,578,26.5802040503,58.6610106034
504,149,15,96,95,JOHKE,27.41439167,59.35791667,Jõhvi vald,251,Ida-Viru maakond,44,251,27.4083585251,59.3424391632
505,36,15,417,416,ASSAM,26.26888889,59.225,Tamsalu vald,786,Lääne-Viru maakond,59,786,26.1076570168,59.1589436571
506,552,15,502,501,RISTI,24.02473056,58.99027778,Risti vald,680,Lääne maakond,57,680,24.0382162497,59.0457636015
507,451,15,117,116,PALAD,22.91284444,58.96478333,Pühalepa vald,639,Hiiu maakond,39,639,22.8610846969,58.921633515
508,786,15,421,420,VONNU,27.00554722,58.28471667,Võnnu vald,915,Tartu maakond,78,915,27.17784709,58.3056528029
509,249,15,428,427,KOIGU,26.57305556,57.97166389,Otepää vald,636,Valga maakond,82,636,26.4686913469,58.0260976842
510,152,15,42,41,JUMIN,25.50000556,59.64583056,Kuusalu vald,353,Harju maakond,37,353,25.6482832547,59.459399625
511,267,15,17,16,KOSTI,25.09638889,59.42916667,Jõelähtme vald,245,Harju maakond,37,245,25.1356324047,59.4477133397
512,845,15,560,559,PROHU,24.50444167,58.3975,Pärnu linn,625,Pärnu maakond,67,625,24.5259275582,58.3838964769
513,654,15,940,939,TARKO,26.72026667,58.3925,Tartu linn,795,Tartu maakond,78,795,26.728427209,58.3701665188
514,428,15,439,438,OIU,25.97804444,58.40915833,Kolga-Jaani vald,328,Viljandi maakond,84,328,25.9642221037,58.4893636532
515,481,14,170,169,PIIBU,27.04860556,58.74833056,Pala vald,576,Jõgeva maakond,49,576,27.0129969993,58.6909099391
516,244,14,172,171,KOERU,26.05638056,58.97472222,Koeru vald,314,Järva maakond,51,314,26.0275605435,58.9299699965
517,282,14,75,74,KUREM,27.54444167,59.19305278,Illuka vald,229,Ida-Viru maakond,44,229,27.6299614086,59.1681013766
518,210,14,101,100,KEILA,24.45637778,59.31138889,Harku vald,198,Harju maakond,37,198,24.4423527201,59.4035370046
519,835,14,415,414,SANGL,26.18360833,58.33250556,Rannu vald,666,Tartu maakond,78,666,26.1991701219,58.2948186725
520,48,14,691,690,BEKER,24.67285556,59.45208056,Tallinna linn,784,Harju maakond,37,784,24.7436642049,59.424938231
521,983,14,925,924,TAHET,26.73,58.36694444,Tartu linn,795,Tartu maakond,78,795,26.728427209,58.3701665188
522,26,14,505,504,ANTSL,26.52054444,57.817225,Antsla vald,143,Võru maakond,86,143,26.5747017764,57.7771302074
523,32,14,841,840,ARIMA,24.74136944,59.41714444,Tallinna linn,784,Harju maakond,37,784,24.7436642049,59.424938231
524,708,14,6,5,UHTNA,26.58443889,59.40694167,Sõmeru vald,770,Lääne-Viru maakond,59,770,26.4939661328,59.397459309
525,299,14,412,411,LAEVA,26.35805833,58.46805278,Laeva vald,383,Tartu maakond,78,383,26.3672257232,58.468600133
526,331,14,512,511,LINNA,23.71227222,58.99802222,Oru vald,552,Lääne maakond,57,552,23.794912807,59.0471905381
527,85,14,59,58,ESTON,27.39220278,59.20101389,Mäetaguse vald,498,Ida-Viru maakond,44,498,27.2644056784,59.2260396755
528,155,14,596,595,JUVEL,24.68243889,59.41718889,Tallinna linn,784,Harju maakond,37,784,24.7436642049,59.424938231
529,127,14,595,594,HUNDI,24.71551667,59.45766667,Tallinna linn,784,Harju maakond,37,784,24.7436642049,59.424938231
530,276,14,51,50,KUKRU,27.32888056,59.38638333,Kohtla vald,320,Ida-Viru maakond,44,320,27.288243553,59.3960912082
531,991,14,284,283,TREIM,24.385,57.91916667,Häädemeeste vald,213,Pärnu maakond,67,213,24.5528002505,58.0345310154
532,842,14,466,465,HAANJ,27.05509167,57.72113333,Haanja vald,181,Võru maakond,86,181,27.0695877682,57.6635782231
533,128,14,304,303,IHAMA,26.88165556,58.05526944,Kõlleste vald,354,Põlva maakond,65,354,26.8392179678,58.1067256388
534,274,13,476,475,KUBJA,26.99850556,57.80896667,Võru vald,918,Võru maakond,86,918,26.9975873412,57.8357483266
535,225,13,2,1,KIIMA,24.84833056,59.31415833,Kiili vald,304,Harju maakond,37,304,24.849682094,59.2890849055
536,376,13,625,624,MERIV,24.84522222,59.48646667,Tallinna linn,784,Harju maakond,37,784,24.7436642049,59.424938231
537,247,13,315,314,KOIDU,27.59055556,57.83999444,Värska vald,934,Põlva maakond,65,934,27.6561197357,57.900398725
538,27,13,286,285,ARAVE,25.75971944,59.14472778,Ambla vald,134,Järva maakond,51,134,25.8359720061,59.1616941601
539,596,13,574,573,SAVIQ,24.53046944,58.39738056,Pärnu linn,625,Pärnu maakond,67,625,24.5259275582,58.3838964769
540,728,13,44,43,VALKL,25.355,59.47638056,Kuusalu vald,353,Harju maakond,37,353,25.6482832547,59.459399625
541,165,13,208,207,KAINA,22.77583333,58.83055556,Käina vald,368,Hiiu maakond,39,368,22.7229949782,58.836709045
542,137,13,876,875,IRUKO,24.92666667,59.45166667,Maardu linn,446,Harju maakond,37,446,24.9736738173,59.4652601869
543,511,13,458,457,PUKAQ,26.24583056,58.06028056,Puka vald,608,Valga maakond,82,608,26.178211418,58.0550066332
544,56,13,148,147,EBAVE,26.25609722,59.09693889,Väike-Maarja vald,926,Lääne-Viru maakond,59,926,26.3256795348,59.0731374093
545,363,13,182,181,MAO,25.61388333,58.91083056,Paide vald,565,Järva maakond,51,565,25.5742738611,58.9563418757
546,519,13,515,514,PYSSI,27.03556389,59.35888333,Püssi linn,645,Ida-Viru maakond,44,645,27.0453439239,59.3596540241
547,707,13,716,715,TYVE,24.71415556,59.40693889,Tallinna linn,784,Harju maakond,37,784,24.7436642049,59.424938231
548,534,13,590,589,RAKTL,26.359175,59.35166667,Rakvere linn,663,Lääne-Viru maakond,59,663,26.3628740797,59.3453399665
549,369,13,387,386,MASA,22.70834444,58.35083056,Pihtla vald,592,Saare maakond,74,592,22.7098784183,58.3343904489
550,967,13,826,825,PITEE,24.80666667,59.44916667,Tallinna linn,784,Harju maakond,37,784,24.7436642049,59.424938231
551,879,13,690,689,ARISO,24.71110833,59.41555556,Tallinna linn,784,Harju maakond,37,784,24.7436642049,59.424938231
552,269,12,353,352,KPERE,24.83444444,58.95638889,Kehtna vald,292,Rapla maakond,70,292,24.9203233499,58.8476756522
553,303,12,83,82,LAIKY,23.99624444,58.76435556,Martna vald,452,Lääne maakond,57,452,23.8620089912,58.8420381155
554,725,12,356,355,VALGU,24.60485833,58.81823333,Märjamaa vald,504,Rapla maakond,70,504,24.3999444472,58.9045365106
555,358,12,636,635,MAINO,24.77165833,59.43333889,Tallinna linn,784,Harju maakond,37,784,24.7436642049,59.424938231
556,349,12,510,509,LUUNA,26.91470556,58.37055556,Luunja vald,432,Tartu maakond,78,432,26.9450945079,58.3943903472
557,892,12,379,378,KOIMQ,22.12596667,58.22641944,Lümanda vald,440,Saare maakond,74,440,22.0288966873,58.2696309438
558,536,12,778,777,RAMKO,24.65026389,59.43119167,Tallinna linn,784,Harju maakond,37,784,24.7436642049,59.424938231
559,571,12,487,486,ROUGE,26.92722222,57.71193889,Rõuge vald,697,Võru maakond,86,697,26.87986142,57.7216510254
560,172,12,844,843,KALEV,24.76138333,59.42692222,Tallinna linn,784,Harju maakond,37,784,24.7436642049,59.424938231
561,25,12,921,920,ANNE,26.77471667,58.37305833,Tartu linn,795,Tartu maakond,78,795,26.728427209,58.3701665188
562,912,12,290,289,TATAM,26.90833611,58.43944444,Tartu vald,794,Tartu maakond,78,794,26.7415817031,58.4772473633
563,599,12,607,606,SELVE,24.66584444,59.41165833,Tallinna linn,784,Harju maakond,37,784,24.7436642049,59.424938231
564,404,12,449,448,MUSTL,25.86666667,58.23527222,Tarvastu vald,797,Viljandi maakond,84,797,25.853725555,58.2051766791
565,88,12,701,700,FANAL,24.61111389,59.39389167,Tallinna linn,784,Harju maakond,37,784,24.7436642049,59.424938231
566,106,12,252,251,HALJA,26.22888333,59.45555278,Haljala vald,190,Lääne-Viru maakond,59,190,26.2476508743,59.4492624683
567,769,12,542,541,VIPLA,25.56917222,58.36021944,Viljandi linn,897,Viljandi maakond,84,897,25.59128476,58.3599325495
568,980,11,550,549,SOMPA,27.28583333,59.33805556,Kohtla-Järve linn,322,Ida-Viru maakond,44,322,27.339327476,59.3651226829
569,229,11,122,121,KILNQ,24.99944444,58.15666944,Saarde vald,710,Pärnu maakond,67,710,24.9531904485,58.1477549275
570,671,11,424,423,TIKSO,26.655825,58.40999167,Tähtvere vald,831,Tartu maakond,78,831,26.5822483073,58.3941565369
571,460,11,410,409,PANGO,26.58276944,58.19361389,Kambja vald,282,Tartu maakond,78,282,26.6858690846,58.2079693391
572,901,11,367,366,PAUNQ,25.29249167,59.15888889,Kõue vald,363,Harju maakond,37,363,25.2962520584,59.1040183104
573,840,11,554,553,KEIKO,24.4,59.30166667,Keila linn,296,Harju maakond,37,296,24.3932409089,59.3118232006
574,458,11,804,803,PANEL,24.86694444,59.42804722,Tallinna linn,784,Harju maakond,37,784,24.7436642049,59.424938231
575,326,11,495,494,LIINA,27.28055556,57.72110556,Vastseliina vald,874,Võru maakond,86,874,27.2643447369,57.7423517708
576,329,11,755,754,LILLE,24.72233056,59.41876667,Tallinna linn,784,Harju maakond,37,784,24.7436642049,59.424938231
577,7,11,272,271,AHAST,24.1218,58.50170833,Audru vald,159,Pärnu maakond,67,159,24.2251855422,58.4255615021
578,537,11,414,413,RANNU,26.21583889,58.24333056,Rannu vald,666,Tartu maakond,78,666,26.1991701219,58.2948186725
579,370,11,673,672,MASIN,24.7194,59.44600278,Tallinna linn,784,Harju maakond,37,784,24.7436642049,59.424938231
580,475,11,861,860,PERHM,24.70110556,59.39916389,Tallinna linn,784,Harju maakond,37,784,24.7436642049,59.424938231
581,865,11,781,780,LOOMA,24.65861389,59.42277778,Tallinna linn,784,Harju maakond,37,784,24.7436642049,59.424938231
582,960,11,814,813,NOMKI,24.68305556,59.38805556,Tallinna linn,784,Harju maakond,37,784,24.7436642049,59.424938231
583,2,11,209,208,AADMA,22.65482778,58.80254722,Käina vald,368,Hiiu maakond,39,368,22.7229949782,58.836709045
584,153,11,938,937,JUURA,26.70501667,58.37796944,Tartu linn,795,Tartu maakond,78,795,26.728427209,58.3701665188
585,565,11,931,930,RONDA,26.68693056,58.35999167,Tartu linn,795,Tartu maakond,78,795,26.728427209,58.3701665188
586,117,11,808,807,HIIU,24.67925278,59.37288333,Tallinna linn,784,Harju maakond,37,784,24.7436642049,59.424938231
587,906,11,184,183,PURDI,25.60597222,58.97459167,Paide vald,565,Järva maakond,51,565,25.5742738611,58.9563418757
588,729,11,346,345,VALMA,26.67805278,58.09693889,Valgjärve vald,856,Põlva maakond,65,856,26.686268762,58.0883162034
589,53,11,609,608,CPLAZ,24.75811944,59.43471667,Tallinna linn,784,Harju maakond,37,784,24.7436642049,59.424938231
590,902,11,696,695,PELGU,24.68332778,59.45110556,Tallinna linn,784,Harju maakond,37,784,24.7436642049,59.424938231
591,656,10,911,910,TAROP,26.72380556,58.35857222,Tartu linn,795,Tartu maakond,78,795,26.728427209,58.3701665188
592,837,10,950,949,IHARL,26.77110833,58.34305556,Tartu linn,795,Tartu maakond,78,795,26.728427209,58.3701665188
593,734,10,402,401,VARA,26.89554444,58.51054722,Vara vald,861,Tartu maakond,78,861,27.0219458822,58.5104416328
594,46,10,889,888,BALSJ,28.11860556,59.35278056,Narva linn,511,Ida-Viru maakond,44,511,28.1088919858,59.3541913804
595,625,10,473,472,SULTS,25.58721667,58.23943889,Paistu vald,570,Viljandi maakond,84,570,25.6607621256,58.268912026
596,639,10,598,597,TALAK,24.67722778,59.41194167,Tallinna linn,784,Harju maakond,37,784,24.7436642049,59.424938231
597,450,10,169,168,PALA,27.01083056,58.69639167,Pala vald,576,Jõgeva maakond,49,576,27.0129969993,58.6909099391
598,126,10,432,431,HUMUQ,26.04203333,57.88638889,Hummuli vald,208,Valga maakond,82,208,25.9557009283,57.902057631
599,24,10,181,180,ANNA,25.55000556,59.03333056,Paide vald,565,Järva maakond,51,565,25.5742738611,58.9563418757
600,867,10,499,498,NOVA,23.68750556,59.22305556,Nõva vald,531,Lääne maakond,57,531,23.7536164998,59.1641123332
601,554,10,348,347,RKARU,25.15010556,58.82833333,Käru vald,375,Rapla maakond,70,375,25.1515262752,58.8276872302
602,574,10,323,322,RUUSA,27.29805556,58.05388333,Räpina vald,707,Põlva maakond,65,707,27.3922618734,58.1085708729
603,836,10,761,760,JALKA,24.73261667,59.42193889,Tallinna linn,784,Harju maakond,37,784,24.7436642049,59.424938231
604,715,10,295,294,UULU,24.58888056,58.24833889,Tahkuranna vald,848,Pärnu maakond,67,848,24.5464435308,58.2387794658
605,971,10,566,565,RAEKK,24.57861111,58.34555556,Pärnu linn,625,Pärnu maakond,67,625,24.5259275582,58.3838964769
606,215,9,197,196,KERDE,26.29264167,58.84896667,Jõgeva vald,248,Jõgeva maakond,49,248,26.3858342363,58.7944971011
607,539,9,324,323,RAPIK,27.46333056,58.09583056,Räpina vald,707,Põlva maakond,65,707,27.3922618734,58.1085708729
608,864,9,157,156,LAIKE,24.82250278,59.39971667,Rae vald,653,Harju maakond,37,653,24.9518409711,59.3338931726
609,846,9,95,94,JMAAG,27.43277778,59.36444167,Jõhvi vald,251,Ida-Viru maakond,44,251,27.4083585251,59.3424391632
610,856,9,392,391,NOMMK,23.19239444,58.67088333,Muhu vald,478,Saare maakond,74,478,23.2478417057,58.6005172996
611,259,9,401,400,KOOSA,27.08665833,58.53415556,Vara vald,861,Tartu maakond,78,861,27.0219458822,58.5104416328
612,70,9,856,855,EMI,24.69777778,59.39638056,Tallinna linn,784,Harju maakond,37,784,24.7436642049,59.424938231
613,190,9,263,262,KARU,23.89361667,58.54721667,Varbla vald,863,Pärnu maakond,67,863,23.8129851148,58.4584799599
614,161,9,278,277,KABRI,24.24776667,58.32666667,Audru vald,159,Pärnu maakond,67,159,24.2251855422,58.4255615021
615,388,9,657,656,MMTEE,24.69065833,59.41533056,Tallinna linn,784,Harju maakond,37,784,24.7436642049,59.424938231
616,719,9,163,162,VAGEV,24.80371111,59.39417778,Rae vald,653,Harju maakond,37,653,24.9518409711,59.3338931726
617,410,9,7,6,NAPI,26.39778333,59.36778333,Sõmeru vald,770,Lääne-Viru maakond,59,770,26.4939661328,59.397459309
618,627,9,118,117,SUURE,22.94001944,58.87093889,Pühalepa vald,639,Hiiu maakond,39,639,22.8610846969,58.921633515
619,871,9,684,683,STAND,24.71139167,59.44833056,Tallinna linn,784,Harju maakond,37,784,24.7436642049,59.424938231
620,323,9,89,88,LIHUL,23.81944167,58.67638333,Lihula vald,411,Lääne maakond,57,411,23.8511700439,58.6906501727
621,818,9,524,523,KUNDA,26.51444167,59.49999167,Kunda linn,345,Lääne-Viru maakond,59,345,26.5319062215,59.5064962026
622,800,9,436,435,YLENU,26.72500278,58.31610833,Ülenurme vald,949,Tartu maakond,78,949,26.6774712378,58.3116112752
623,986,8,866,865,TARIM,24.71333333,59.40166667,Tallinna linn,784,Harju maakond,37,784,24.7436642049,59.424938231
624,365,8,873,872,MARDU,25.01102778,59.47711389,Maardu linn,446,Harju maakond,37,446,24.9736738173,59.4652601869
625,700,8,212,211,TURBA,24.19810556,59.06888889,Nissi vald,518,Harju maakond,37,518,24.2382004188,59.1080023858
626,174,8,409,408,KAMJA,26.70817778,58.23752778,Kambja vald,282,Tartu maakond,78,282,26.6858690846,58.2079693391
627,843,8,131,130,KARED,25.79308333,58.97265556,Kareda vald,288,Järva maakond,51,288,25.818779186,58.9413773729
628,115,8,397,396,HEIMT,25.52064444,58.31038056,Pärsti vald,629,Viljandi maakond,84,629,25.4721173447,58.3561703404
629,144,8,859,858,JASEL,24.72034722,59.39245833,Tallinna linn,784,Harju maakond,37,784,24.7436642049,59.424938231
630,644,8,374,373,TAMME,24.64162222,58.92516667,Raikküla vald,654,Rapla maakond,70,654,24.6738327322,58.9078638966
631,508,8,823,822,PSILD,24.79832778,59.435,Tallinna linn,784,Harju maakond,37,784,24.7436642049,59.424938231
632,461,8,603,602,PANK,24.74305833,59.43249444,Tallinna linn,784,Harju maakond,37,784,24.7436642049,59.424938231
633,176,8,306,305,KANEQ,26.77139167,57.98583889,Kanepi vald,285,Põlva maakond,65,285,26.7597905577,57.9819208971
634,235,8,809,808,KIVIM,24.65639167,59.38054722,Tallinna linn,784,Harju maakond,37,784,24.7436642049,59.424938231
635,248,8,77,76,KOIGI,25.74635278,58.82923056,Koigi vald,325,Järva maakond,51,325,25.8414711383,58.8364904057
636,915,8,431,430,TEHVA,26.51638889,58.05110833,Otepää vald,636,Valga maakond,82,636,26.4686913469,58.0260976842
637,597,8,15,14,SAVIR,25.04710556,59.49765833,Jõelähtme vald,245,Harju maakond,37,245,25.1356324047,59.4477133397
638,268,7,753,752,KOTKA,24.72831944,59.41978333,Tallinna linn,784,Harju maakond,37,784,24.7436642049,59.424938231
639,985,7,257,256,TAPKV,25.95333333,59.245,Tapa vald,790,Lääne-Viru maakond,59,790,25.8669577976,59.2416944868
640,447,7,498,497,PAIDL,26.47555556,58.11526944,Palupera vald,582,Valga maakond,82,582,26.4426327151,58.1243458909
641,485,7,238,237,PILLA,25.57097778,59.35984167,Anija vald,140,Harju maakond,37,140,25.4558104801,59.3107524694
642,727,7,372,371,VALJA,22.79415556,58.41554444,Valjala vald,858,Saare maakond,74,858,22.8510608852,58.4035129595
643,670,7,599,598,TIHNI,24.63829444,59.38374722,Tallinna linn,784,Harju maakond,37,784,24.7436642049,59.424938231
644,391,7,477,476,MOKSI,27.04499167,57.76166389,Võru vald,918,Võru maakond,86,918,26.9975873412,57.8357483266
645,351,7,456,455,LYLLE,26.35027222,57.74860556,Karula vald,289,Valga maakond,82,289,26.323896702,57.7541637152
646,549,7,130,129,RIKYL,24.74223056,58.19278056,Surju vald,756,Pärnu maakond,67,756,24.7795654515,58.2486462093
647,745,7,645,644,VASE,24.77249167,59.43666389,Tallinna linn,784,Harju maakond,37,784,24.7436642049,59.424938231
648,496,7,895,894,POLKE,27.05334167,58.05221944,Põlva linn,620,Põlva maakond,65,620,27.0708257642,58.0601566863
649,669,7,678,677,THEKA,24.65305833,59.39222778,Tallinna linn,784,Harju maakond,37,784,24.7436642049,59.424938231
650,657,7,916,915,TARRO,26.73111111,58.355,Tartu linn,795,Tartu maakond,78,795,26.728427209,58.3701665188
651,140,7,359,358,JARKA,24.81666389,58.78360556,Järvakandi vald,260,Rapla maakond,70,260,24.8110770118,58.7784346397
652,336,7,73,72,LOHSU,27.04815833,58.94621667,Lohusuu vald,420,Ida-Viru maakond,44,420,26.9992847532,58.9461145791
653,477,7,688,687,PESEM,24.71999167,59.41471667,Tallinna linn,784,Harju maakond,37,784,24.7436642049,59.424938231
654,974,7,158,157,RETIT,24.82833333,59.38611111,Rae vald,653,Harju maakond,37,653,24.9518409711,59.3338931726
655,758,7,335,334,VIISA,24.82972222,59.50805556,Viimsi vald,890,Harju maakond,37,890,24.7892923114,59.5411908659
656,390,7,443,442,MOISQ,25.17599167,58.10060556,Abja vald,105,Viljandi maakond,84,105,25.26385742,58.0978883094
657,851,7,882,881,VALRA,26.05403056,57.77500278,Valga linn,854,Valga maakond,82,854,26.0708032449,57.7784600776
658,227,7,446,445,KILLI,26.17583056,57.96277778,Õru vald,943,Valga maakond,82,943,26.1593846287,57.9443008602
659,167,7,606,605,KAJA,24.66629444,59.40415556,Tallinna linn,784,Harju maakond,37,784,24.7436642049,59.424938231
660,739,7,400,399,VARNJ,27.24007222,58.47721667,Vara vald,861,Tartu maakond,78,861,27.0219458822,58.5104416328
661,588,7,455,454,SANDR,25.16888333,58.42361389,Suure-Jaani vald,758,Viljandi maakond,84,758,25.3870812447,58.5058230887
662,713,7,507,506,URVAS,26.58982222,57.90483056,Urvaste vald,843,Võru maakond,86,843,26.5399913985,57.9031131312
663,356,6,845,844,MAGAS,24.753175,59.42442222,Tallinna linn,784,Harju maakond,37,784,24.7436642049,59.424938231
664,417,6,803,802,NISSA,24.87331667,59.43666667,Tallinna linn,784,Harju maakond,37,784,24.7436642049,59.424938231
665,346,6,1,0,LUIGE,24.77665278,59.34361111,Kiili vald,304,Harju maakond,37,304,24.849682094,59.2890849055
666,689,6,312,311,TOSTA,23.98888056,58.33583056,Tõstamaa vald,826,Pärnu maakond,67,826,24.0449357672,58.3486492967
667,616,6,237,236,SOODL,25.42670278,59.37182222,Anija vald,140,Harju maakond,37,140,25.4558104801,59.3107524694
668,530,6,261,260,RAKEQ,26.26055556,58.97472222,Rakke vald,660,Lääne-Viru maakond,59,660,26.2695204553,58.9595199933
669,947,6,119,118,HELTE,23.04722222,58.86666667,Pühalepa vald,639,Hiiu maakond,39,639,22.8610846969,58.921633515
670,746,6,452,451,VASTE,25.45443333,58.44444444,Suure-Jaani vald,758,Viljandi maakond,84,758,25.3870812447,58.5058230887
671,923,6,230,229,YKSNU,24.61555,59.28444444,Saku vald,718,Harju maakond,37,718,24.6988650156,59.2833292757
672,454,6,80,79,PALIV,23.83500278,58.96971667,Taebla vald,776,Lääne maakond,57,776,23.8305205297,58.9669118502
673,917,6,546,545,TOORU,27.56449167,59.36988611,Kohtla-Järve linn,322,Ida-Viru maakond,44,322,27.339327476,59.3651226829
674,277,6,78,77,KULEE,24.08804444,58.88583056,Kullamaa vald,342,Lääne maakond,57,342,24.0437289775,58.850647552
675,989,6,235,234,TODVA,24.739479,59.282377,Saku vald,718,Harju maakond,37,718,24.6988650156,59.2833292757
676,67,6,632,631,ELME,24.72639167,59.44915833,Tallinna linn,784,Harju maakond,37,784,24.7436642049,59.424938231
677,874,6,134,133,TORAV,26.46471944,58.26583056,Nõo vald,528,Tartu maakond,78,528,26.5121225868,58.2521525734
678,884,6,228,227,DSV,24.62056389,59.33944167,Saku vald,718,Harju maakond,37,718,24.6988650156,59.2833292757
679,123,6,48,47,HRIST,24.00639167,59.22750278,Padise vald,562,Harju maakond,37,562,23.9818282041,59.2195253675
680,145,6,136,135,JJAAN,25.89444167,59.04026667,Järva-Jaani vald,257,Järva maakond,51,257,25.9100108653,59.0460072595
681,431,6,214,213,ONGU,22.46455556,58.84656667,Emmaste vald,175,Hiiu maakond,39,175,22.5591335357,58.7747159399
682,372,6,405,404,MEHIK,27.45415833,58.23360556,Meeksi vald,454,Tartu maakond,78,454,27.3738544628,58.2828106521
683,360,5,229,228,MANKY,24.69150278,59.33668889,Saku vald,718,Harju maakond,37,718,24.6988650156,59.2833292757
684,553,5,205,204,RITSU,25.84596667,58.03417778,Helme vald,203,Valga maakond,82,203,25.8072478261,57.9848197155
685,913,5,951,950,TAUF,26.73333333,58.35221667,Tartu linn,795,Tartu maakond,78,795,26.728427209,58.3701665188
686,624,5,448,447,SUISL,25.96444444,58.15358056,Tarvastu vald,797,Viljandi maakond,84,797,25.853725555,58.2051766791
687,313,5,258,257,LEHTM,25.64166389,59.22777222,Tapa vald,790,Lääne-Viru maakond,59,790,25.8669577976,59.2416944868
688,265,5,291,290,KORVE,26.76876667,58.42334722,Tartu vald,794,Tartu maakond,78,794,26.7415817031,58.4772473633
689,384,5,485,484,MISSO,27.22721667,57.60832778,Misso vald,468,Võru maakond,86,468,27.2589043539,57.6092325081
690,911,5,303,302,TAALQ,24.76917222,58.44896389,Tori vald,808,Pärnu maakond,67,808,24.881108175,58.4803864106
691,490,5,319,318,PIUSA,27.47472222,57.84,Orava vald,547,Põlva maakond,65,547,27.4346283021,57.8886092523
692,674,5,337,336,TNEEM,24.87972778,59.52888056,Viimsi vald,890,Harju maakond,37,890,24.7892923114,59.5411908659
693,316,5,349,348,LELLE,24.99500833,58.85999444,Kehtna vald,292,Rapla maakond,70,292,24.9203233499,58.8476756522
694,243,5,361,360,KODIL,24.63264167,59.08380556,Rapla vald,669,Rapla maakond,70,669,24.725644867,59.0344063535
695,538,5,363,362,RAPEE,24.81351667,58.99469167,Rapla vald,669,Rapla maakond,70,669,24.725644867,59.0344063535
696,847,5,877,876,KARMU,24.96221667,59.45305556,Maardu linn,446,Harju maakond,37,446,24.9736738173,59.4652601869
697,213,5,773,772,KELLU,24.72860556,59.40416667,Tallinna linn,784,Harju maakond,37,784,24.7436642049,59.424938231
698,823,5,910,909,JANES,26.73360556,58.39166667,Tartu linn,795,Tartu maakond,78,795,26.728427209,58.3701665188
699,52,5,106,105,CERES,24.59569444,59.41427778,Harku vald,198,Harju maakond,37,198,24.4423527201,59.4035370046
700,869,5,21,20,ORU,24.98166667,59.1925,Kose vald,337,Harju maakond,37,337,25.1066440122,59.1935046924
701,57,5,946,945,EEDEN,26.75003056,58.37325833,Tartu linn,795,Tartu maakond,78,795,26.728427209,58.3701665188
702,744,5,46,45,VASAL,24.28193889,59.23444167,Vasalemma vald,868,Harju maakond,37,868,24.2498057927,59.237986406
703,886,5,76,75,ILLUQ,27.51305278,59.23943889,Illuka vald,229,Ida-Viru maakond,44,229,27.6299614086,59.1681013766
704,653,5,511,510,TARAL,26.78304167,58.37666944,Luunja vald,432,Tartu maakond,78,432,26.9450945079,58.3943903472
705,771,5,398,397,VIRLE,25.57083333,58.37472222,Pärsti vald,629,Viljandi maakond,84,629,25.4721173447,58.3561703404
706,37,5,162,161,ASSKU,24.82522222,59.3725,Rae vald,653,Harju maakond,37,653,24.9518409711,59.3338931726
707,560,5,124,123,ROELA,26.61166667,59.16582222,Vinni vald,900,Lääne-Viru maakond,59,900,26.6047305328,59.2134172305
708,813,5,769,768,TUNGL,24.66027778,59.36777778,Tallinna linn,784,Harju maakond,37,784,24.7436642049,59.424938231
709,312,4,115,114,LEHOL,24.32804722,59.28972222,Keila vald,295,Harju maakond,37,295,24.291986319,59.3161718668
710,844,4,53,52,ADRAK,26.80361667,58.90472222,Avinurme vald,164,Ida-Viru maakond,44,164,26.8605054217,58.9742809276
711,163,4,140,139,KADMA,26.09889167,59.37638333,Kadrina vald,272,Lääne-Viru maakond,59,272,26.0480668662,59.3711160051
712,339,4,354,353,LOODN,24.24221944,58.90082222,Märjamaa vald,504,Rapla maakond,70,504,24.3999444472,58.9045365106
713,207,4,350,349,KEHTQ,24.88065556,58.91943889,Kehtna vald,292,Rapla maakond,70,292,24.9203233499,58.8476756522
714,996,4,935,934,VEERI,26.69222222,58.375,Tartu linn,795,Tartu maakond,78,795,26.728427209,58.3701665188
715,957,4,347,346,MAARI,26.69638889,58.15416667,Valgjärve vald,856,Põlva maakond,65,856,26.686268762,58.0883162034
716,43,4,52,51,AVINU,26.87694722,58.98776667,Avinurme vald,164,Ida-Viru maakond,44,164,26.8605054217,58.9742809276
717,33,4,64,63,ARKMA,25.56871667,58.66516667,Türi vald,835,Järva maakond,51,835,25.4385840297,58.7374146658
718,228,4,121,120,KILNO,24.94861389,58.14888056,Saarde vald,710,Pärnu maakond,67,710,24.9531904485,58.1477549275
719,499,4,896,895,POLVA,27.09694167,58.06360833,Põlva linn,620,Põlva maakond,65,620,27.0708257642,58.0601566863
720,512,4,913,912,PUMBA,26.74221667,58.34249167,Tartu linn,795,Tartu maakond,78,795,26.728427209,58.3701665188
721,598,4,302,301,SELJA,24.81500833,58.51860556,Tori vald,808,Pärnu maakond,67,808,24.881108175,58.4803864106
722,302,4,365,364,LAIJA,23.00860278,58.40332778,Laimjala vald,386,Saare maakond,74,386,23.0247902001,58.4319415366
723,368,4,84,83,MARTN,23.77973056,58.83083333,Martna vald,452,Lääne maakond,57,452,23.8620089912,58.8420381155
724,827,4,287,286,REINE,25.96360556,59.16416667,Ambla vald,134,Järva maakond,51,134,25.8359720061,59.1616941601
725,888,4,98,97,JOHKL,27.41028611,59.36333056,Jõhvi vald,251,Ida-Viru maakond,44,251,27.4083585251,59.3424391632
726,181,4,249,248,KAREP,26.36736667,59.54013056,Vihula vald,887,Lääne-Viru maakond,59,887,26.0851333592,59.5393460708
727,348,4,175,174,LUSTI,26.09499444,58.66305278,Põltsamaa vald,616,Jõgeva maakond,49,616,26.0095928999,58.6444906043
728,310,4,280,279,LAVAS,24.37448333,58.51358333,Lavassaare vald,395,Pärnu maakond,67,395,24.3760303701,58.5067420213
729,189,4,447,446,KARST,25.79640278,58.13805556,Tarvastu vald,797,Viljandi maakond,84,797,25.853725555,58.2051766791
730,676,4,517,516,TOKKE,24.54104444,59.32166667,Saue linn,728,Harju maakond,37,728,24.5566506425,59.3199884553
731,614,4,489,488,SOMER,26.80243056,57.87738889,Sõmerpalu vald,767,Võru maakond,86,767,26.7603497932,57.8669590905
732,135,4,491,490,INGLI,24.93704722,59.01594444,Juuru vald,240,Rapla maakond,70,240,24.9413449715,59.0918655235
733,112,4,425,424,HARGL,26.40249167,57.62943333,Taheva vald,779,Valga maakond,82,779,26.330533452,57.656192474
734,429,4,450,449,OLUST,25.57054444,58.54555278,Suure-Jaani vald,758,Viljandi maakond,84,758,25.3870812447,58.5058230887
735,261,4,693,692,KOPLI,24.67304444,59.45805278,Tallinna linn,784,Harju maakond,37,784,24.7436642049,59.424938231
736,1013,4,482,481,ALUST,24.91916667,58.62861111,Vändra vald,929,Pärnu maakond,67,929,24.9665498661,58.6423249126
737,1010,4,797,796,RKASL,24.78166667,59.4275,Tallinna linn,784,Harju maakond,37,784,24.7436642049,59.424938231
738,314,3,259,258,LEHTS,25.82774444,59.24911389,Tapa vald,790,Lääne-Viru maakond,59,790,25.8669577976,59.2416944868
739,608,3,915,914,SINIK,26.70861111,58.35083056,Tartu linn,795,Tartu maakond,78,795,26.728427209,58.3701665188
740,211,3,552,551,KEILH,24.40555278,59.31333056,Keila linn,296,Harju maakond,37,296,24.3932409089,59.3118232006
741,973,3,270,269,RARAK,26.33833333,59.36555556,Rakvere vald,662,Lääne-Viru maakond,59,662,26.2850498494,59.3222456117
742,130,3,72,71,IISAK,27.31333056,59.09305556,Iisaku vald,224,Ida-Viru maakond,44,224,27.3310010544,59.0871125213
743,919,3,69,68,TYTEH,25.40777778,58.8175,Türi vald,835,Järva maakond,51,835,25.4385840297,58.7374146658
744,185,3,268,267,KARIT,26.30890556,59.28963333,Rakvere vald,662,Lääne-Viru maakond,59,662,26.2850498494,59.3222456117
745,357,3,57,56,MAIDL,27.02058333,59.33536667,Maidla vald,449,Ida-Viru maakond,44,449,27.0281673696,59.2539384924
746,483,3,465,464,PIIPS,27.09473056,57.67361667,Haanja vald,181,Võru maakond,86,181,27.0695877682,57.6635782231
747,120,3,475,474,HOLSA,27.15138333,57.7725,Võru vald,918,Võru maakond,86,918,26.9975873412,57.8357483266
748,637,3,82,81,TAEBL,23.74055833,58.95471944,Taebla vald,776,Lääne maakond,57,776,23.8305205297,58.9669118502
749,970,3,930,929,PUUSE,26.7,58.37,Tartu linn,795,Tartu maakond,78,795,26.728427209,58.3701665188
750,868,3,478,477,NURSI,26.93499167,57.78,Võru vald,918,Võru maakond,86,918,26.9975873412,57.8357483266
751,1000,3,216,215,EMMAA,22.59888889,58.70416667,Emmaste vald,175,Hiiu maakond,39,175,22.5591335357,58.7747159399
752,96,3,874,873,FOSFO,24.99632778,59.45644167,Maardu linn,446,Harju maakond,37,446,24.9736738173,59.4652601869
753,640,3,120,119,TALI,24.77388056,58.06999167,Saarde vald,710,Pärnu maakond,67,710,24.9531904485,58.1477549275
754,275,3,501,500,KUIJO,23.99583056,59.08006944,Risti vald,680,Lääne maakond,57,680,24.0382162497,59.0457636015
755,955,3,194,193,KURMA,26.53833333,58.73722222,Jõgeva vald,248,Jõgeva maakond,49,248,26.3858342363,58.7944971011
756,89,3,772,771,FARMA,24.729775,59.40944444,Tallinna linn,784,Harju maakond,37,784,24.7436642049,59.424938231
757,863,3,161,160,KULDA,24.80471389,59.40388333,Rae vald,653,Harju maakond,37,653,24.9518409711,59.3338931726
758,612,3,928,927,SOBRA,26.71944722,58.36526944,Tartu linn,795,Tartu maakond,78,795,26.728427209,58.3701665188
759,340,3,159,158,LOOPE,24.85678889,59.39315833,Rae vald,653,Harju maakond,37,653,24.9518409711,59.3338931726
760,87,3,789,788,FAHLE,24.78027222,59.42471944,Tallinna linn,784,Harju maakond,37,784,24.7436642049,59.424938231
761,434,3,320,319,ORAVA,27.47111389,57.92212778,Orava vald,547,Põlva maakond,65,547,27.4346283021,57.8886092523
762,188,3,376,375,KARLA,22.26278333,58.33554444,Kärla vald,373,Saare maakond,74,373,22.2692605568,58.3198715874
763,347,3,4,3,LUIGQ,24.77277778,59.32528056,Kiili vald,304,Harju maakond,37,304,24.849682094,59.2890849055
764,518,3,388,387,PYHAQ,22.72622222,58.30558056,Pihtla vald,592,Saare maakond,74,592,22.7098784183,58.3343904489
765,620,3,438,437,SPEED,25.67581667,58.43582778,Saarepeedi vald,715,Viljandi maakond,84,715,25.65682387,58.4351949737
766,515,3,698,697,PUSEL,24.84071389,59.43516667,Tallinna linn,784,Harju maakond,37,784,24.7436642049,59.424938231
767,50,3,25,24,BODIL,25.08176667,59.35921667,Raasiku vald,651,Harju maakond,37,651,25.1319450905,59.3242694413
768,733,3,326,325,VAOPE,25.15900833,59.06849444,Kaiu vald,277,Rapla maakond,70,277,25.1485896778,58.9971213003
769,260,3,454,453,KOOTS,25.24876944,58.57986944,Suure-Jaani vald,758,Viljandi maakond,84,758,25.3870812447,58.5058230887
770,817,3,27,26,AKYLQ,25.04999167,59.36666667,Raasiku vald,651,Harju maakond,37,651,25.1319450905,59.3242694413
771,60,3,30,29,EESEJ,27.90785278,59.27314167,Vaivara vald,851,Ida-Viru maakond,44,851,27.8827796677,59.331780323
772,1016,3,943,942,ALCOQ,26.70527778,58.38611111,Tartu linn,795,Tartu maakond,78,795,26.728427209,58.3701665188
773,721,3,292,291,VAHIT,26.734225,58.39985833,Tartu vald,794,Tartu maakond,78,794,26.7415817031,58.4772473633
774,113,3,444,443,HARIM,26.35110833,57.99832778,Sangaste vald,724,Valga maakond,82,724,26.3148929573,57.9504198822
775,685,3,651,650,TORNI,24.76028333,59.43444167,Tallinna linn,784,Harju maakond,37,784,24.7436642049,59.424938231
776,392,3,307,306,MOOST,27.21972778,58.16666667,Mooste vald,473,Põlva maakond,65,473,27.2182673901,58.1701347934
777,870,3,683,682,SPRAT,24.60139167,59.44944167,Tallinna linn,784,Harju maakond,37,784,24.7436642049,59.424938231
778,529,3,674,673,RAJA,24.66278056,59.39253056,Tallinna linn,784,Harju maakond,37,784,24.7436642049,59.424938231
779,443,3,47,46,PADIS,24.08635278,59.21621667,Padise vald,562,Harju maakond,37,562,23.9818282041,59.2195253675
780,452,2,81,80,PALAS,23.88166667,58.96776944,Taebla vald,776,Lääne maakond,57,776,23.8305205297,58.9669118502
781,591,2,497,496,SARU,26.55416389,57.60888889,Mõniste vald,493,Võru maakond,86,493,26.5631747396,57.5995962219
782,64,2,144,143,EIKLA,22.51749444,58.42472222,Kaarma vald,270,Saare maakond,74,270,22.4795597872,58.3319825545
783,832,2,142,141,HULJA,26.21138056,59.355,Kadrina vald,272,Lääne-Viru maakond,59,272,26.0480668662,59.3711160051
784,1006,2,138,137,KILKS,24.61583333,58.45138889,Sauga vald,730,Pärnu maakond,67,730,24.5652136738,58.447373832
785,375,2,490,489,MEREM,27.45776667,57.73360556,Meremäe vald,460,Võru maakond,86,460,27.4459787501,57.7741882335
786,966,2,10,9,PASIL,24.622494,58.346669,Paikuse vald,568,Pärnu maakond,67,568,24.7766632096,58.3647089971
787,45,2,699,698,BALPA,24.84878056,59.41885556,Tallinna linn,784,Harju maakond,37,784,24.7436642049,59.424938231
788,1021,2,16,15,REBAL,25.06055556,59.45444444,Jõelähtme vald,245,Harju maakond,37,245,25.1356324047,59.4477133397
789,171,2,922,921,KALDA,26.75999167,58.37416667,Tartu linn,795,Tartu maakond,78,795,26.728427209,58.3701665188
790,8,2,506,505,AHIJR,26.47722778,57.73333333,Antsla vald,143,Võru maakond,86,143,26.5747017764,57.7771302074
791,866,2,508,507,LUUNJ,26.87916389,58.35610556,Luunja vald,432,Tartu maakond,78,432,26.9450945079,58.3943903472
792,290,2,509,508,KVAST,27.06278889,58.41083056,Luunja vald,432,Tartu maakond,78,432,26.9450945079,58.3943903472
793,839,2,570,569,PKUTS,24.54027778,58.38583056,Pärnu linn,625,Pärnu maakond,67,625,24.5259275582,58.3838964769
794,253,2,686,685,KOMME,24.70999167,59.41416667,Tallinna linn,784,Harju maakond,37,784,24.7436642049,59.424938231
795,433,2,756,755,OPTIV,24.76400556,59.43769167,Tallinna linn,784,Harju maakond,37,784,24.7436642049,59.424938231
796,976,2,377,376,SAUVE,22.33055556,58.37861111,Kärla vald,373,Saare maakond,74,373,22.2692605568,58.3198715874
797,590,2,488,487,SANNA,26.80665556,57.73778333,Rõuge vald,697,Võru maakond,86,697,26.87986142,57.7216510254
798,472,2,156,155,PATIQ,24.92471667,59.31471944,Rae vald,653,Harju maakond,37,653,24.9518409711,59.3338931726
799,166,2,325,324,KAIU,25.05555556,59.01471667,Kaiu vald,277,Rapla maakond,70,277,25.1485896778,58.9971213003
800,979,2,167,166,SLEEP,24.88194444,59.36777778,Rae vald,653,Harju maakond,37,653,24.9518409711,59.3338931726
801,21,2,285,284,AMBLA,25.84333333,59.19166389,Ambla vald,134,Järva maakond,51,134,25.8359720061,59.1616941601
802,378,2,232,231,METSA,24.66764167,59.26639444,Saku vald,718,Harju maakond,37,718,24.6988650156,59.2833292757
803,500,2,305,304,POPRA,26.76833056,58.16388333,Kõlleste vald,354,Põlva maakond,65,354,26.8392179678,58.1067256388
804,319,2,318,317,LEPAS,27.32611667,57.85805278,Orava vald,547,Põlva maakond,65,547,27.4346283021,57.8886092523
805,482,2,830,829,PIIKO,24.73400556,59.40464444,Tallinna linn,784,Harju maakond,37,784,24.7436642049,59.424938231
806,998,2,832,831,VRENN,24.75666667,59.41305556,Tallinna linn,784,Harju maakond,37,784,24.7436642049,59.424938231
807,997,2,267,266,VENEV,26.70611111,59.00944444,Laekvere vald,381,Lääne-Viru maakond,59,381,26.6399720375,59.0570335364
808,629,2,811,810,SUUSA,24.66989167,59.38813056,Tallinna linn,784,Harju maakond,37,784,24.7436642049,59.424938231
809,333,2,420,419,LKONN,27.20555556,58.27583056,Võnnu vald,915,Tartu maakond,78,915,27.17784709,58.3056528029
810,940,2,329,328,AHJAK,27.07083333,58.21027778,Ahja vald,117,Põlva maakond,65,117,27.0620522721,58.2054849103
811,643,1,300,299,TAMMA,24.19750278,58.61277778,Koonga vald,334,Pärnu maakond,67,334,24.1227847823,58.5845541386
812,232,1,65,64,KIRNA,25.47389167,58.84944167,Türi vald,835,Järva maakond,51,835,25.4385840297,58.7374146658
813,531,1,588,587,RAKLA,26.36306389,59.34915556,Rakvere linn,663,Lääne-Viru maakond,59,663,26.3628740797,59.3453399665
814,355,1,60,59,MAETA,27.29387778,59.22805556,Mäetaguse vald,498,Ida-Viru maakond,44,498,27.2644056784,59.2260396755
815,682,1,279,278,TOOTS,24.78744167,58.5865,Tootsi vald,805,Pärnu maakond,67,805,24.7926002257,58.5776377062
816,779,1,707,706,VMOLD,24.615275,59.36194167,Tallinna linn,784,Harju maakond,37,784,24.7436642049,59.424938231
817,241,1,54,53,KNOMM,27.19667778,59.34808056,Kohtla-Nõmme vald,323,Ida-Viru maakond,44,323,27.1931523173,59.3569514971
818,1020,1,375,374,RAIKK,24.73527778,58.93944444,Raikküla vald,654,Rapla maakond,70,654,24.6738327322,58.9078638966
819,1017,1,944,943,SALVE,26.71027778,58.40194444,Tartu linn,795,Tartu maakond,78,795,26.728427209,58.3701665188
820,289,1,427,426,KUUTS,26.32444167,58.02888889,Otepää vald,636,Valga maakond,82,636,26.4686913469,58.0260976842
821,236,1,440,439,KJAAN,25.93416667,58.52916667,Kolga-Jaani vald,328,Viljandi maakond,84,328,25.9642221037,58.4893636532
822,389,1,442,441,MOISA,25.23749167,58.11944167,Abja vald,105,Viljandi maakond,84,105,25.26385742,58.0978883094
823,427,1,66,65,OISU,25.57026667,58.75833056,Türi vald,835,Järva maakond,51,835,25.4385840297,58.7374146658
824,573,1,45,44,RUMMU,24.20352222,59.23130556,Vasalemma vald,868,Harju maakond,37,868,24.2498057927,59.237986406
825,4,1,441,440,ABJA,25.38553889,58.12610833,Abja vald,105,Viljandi maakond,84,105,25.26385742,58.0978883094
826,371,1,829,828,MEDIC,24.73388889,59.40666667,Tallinna linn,784,Harju maakond,37,784,24.7436642049,59.424938231
827,522,1,26,25,RAASI,25.17776667,59.365,Raasiku vald,651,Harju maakond,37,651,25.1319450905,59.3242694413
828,92,1,842,841,FILTR,24.767675,59.42290278,Tallinna linn,784,Harju maakond,37,784,24.7436642049,59.424938231
829,74,1,262,261,EMU,26.37055833,58.94471667,Rakke vald,660,Lääne-Viru maakond,59,660,26.2695204553,58.9595199933
830,507,1,457,456,PRTSI,26.10084167,58.09139167,Puka vald,608,Valga maakond,82,608,26.178211418,58.0550066332
831,710,1,459,458,UKARI,25.3425,58.24165556,Halliste vald,192,Viljandi maakond,84,192,25.4037409402,58.2129666347
832,178,1,177,176,KANTK,26.64209444,58.81951667,Torma vald,810,Jõgeva maakond,49,810,26.6729265486,58.8654364688
833,990,1,178,177,TORMQ,26.72694444,58.82361111,Torma vald,810,Jõgeva maakond,49,810,26.6729265486,58.8654364688
834,354,1,180,179,MAEKU,25.75558056,58.89574167,Paide vald,565,Järva maakond,51,565,25.5742738611,58.9563418757
835,726,1,880,879,VALIH,26.05305556,57.78500556,Valga linn,854,Valga maakond,82,854,26.0708032449,57.7784600776
836,696,1,128,127,TUDU,26.83334167,59.18638889,Vinni vald,900,Lääne-Viru maakond,59,900,26.6047305328,59.2134172305
837,774,1,126,125,VJAAG,26.47554722,59.24999444,Vinni vald,900,Lääne-Viru maakond,59,900,26.6047305328,59.2134172305
838,944,1,765,764,FORUM,24.75833333,59.43777778,Tallinna linn,784,Harju maakond,37,784,24.7436642049,59.424938231
839,306,1,195,194,LAIUS,26.49665833,58.78333333,Jõgeva vald,248,Jõgeva maakond,49,248,26.3858342363,58.7944971011
840,961,1,776,775,NORCO,24.7325,59.40666667,Tallinna linn,784,Harju maakond,37,784,24.7436642049,59.424938231
841,828,1,903,902,SIION,22.49722778,58.25805278,Kuressaare linn,349,Saare maakond,74,349,22.4901813122,58.2484865923
842,872,1,762,761,TIHAS,24.71304722,59.42388333,Tallinna linn,784,Harju maakond,37,784,24.7436642049,59.424938231
843,918,1,213,212,TUREE,24.24166389,59.07749722,Nissi vald,518,Harju maakond,37,518,24.2382004188,59.1080023858
844,217,1,479,478,KERGU,24.75722222,58.67055556,Vändra vald,929,Pärnu maakond,67,929,24.9665498661,58.6423249126
845,170,1,217,216,KALAN,22.10861389,58.921675,Kõrgessaare vald,392,Hiiu maakond,39,392,22.4813018675,58.9479318366
846,965,1,88,87,PARRL,23.62055556,58.86444444,Ridala vald,674,Lääne maakond,57,674,23.5860176956,58.8671861188
847,256,1,467,466,KOO,25.738875,58.61594167,Kõo vald,357,Viljandi maakond,84,357,25.7011628842,58.610849145
848,855,1,234,233,KASUL,24.68583056,59.23860833,Saku vald,718,Harju maakond,37,718,24.6988650156,59.2833292757
849,941,1,782,781,AUDIT,24.65583333,59.42694444,Tallinna linn,784,Harju maakond,37,784,24.7436642049,59.424938231
850,968,1,519,518,POLPI,25.98444444,58.65416667,Põltsamaa linn,617,Jõgeva maakond,49,617,25.9761935201,58.6529832489
851,457,1,531,530,PALSA,24.08471667,59.33416389,Paldiski linn,580,Harju maakond,37,580,24.031023384,59.3462852456
852,741,1,240,239,VARST,26.66723056,57.64305833,Varstu vald,865,Võru maakond,86,865,26.72668232,57.6451564545
853,278,1,79,78,KULLA,24.04360833,58.84139167,Kullamaa vald,342,Lääne maakond,57,342,24.0437289775,58.850647552
854,575,1,464,463,RUUSQ,27.09276944,57.62944167,Haanja vald,181,Võru maakond,86,181,27.0695877682,57.6635782231
855,600,1,728,727,SHALL,24.64749167,59.42554722,Tallinna linn,784,Harju maakond,37,784,24.7436642049,59.424938231
